area_name,latitude,longitude,area_catagory,statute,penalty,address
(주)남서울가스,37.4977796,127.0755652,가스충전소,서울특별시 강남구 금연환경 조성 및 간접흡연 피해방지 조례 제5조,100000,서울특별시 강남구 대치동 21-1
(주)진양가스,37.4905309,127.0359122,가스충전소,서울특별시 강남구 금연환경 조성 및 간접흡연 피해방지 조례 제5조,100000,서울특별시 강남구 도곡동 552-5
(주)상현상사,37.5136307,127.0313462,가스충전소,서울특별시 강남구 금연환경 조성 및 간접흡연 피해방지 조례 제5조,100000,서울특별시 강남구 논현동 207
(주)삼진에너지,37.4992996,127.07809,가스충전소,서울특별시 강남구 금연환경 조성 및 간접흡연 피해방지 조례 제5조,100000,서울특별시 강남구 대치동 27-15
(주)수서에너지,37.4827957,127.1050145,가스충전소,서울특별시 강남구 금연환경 조성 및 간접흡연 피해방지 조례 제5조,100000,서울특별시 강남구 자곡동204-1
개인택시조합복지강남제2충전소,37.4763295,127.1054648,가스충전소,서울특별시 강남구 금연환경 조성 및 간접흡연 피해방지 조례 제5조,100000,서울특별시 강남구 자곡동 373-1
(주)도선제이엔디아이엔씨,37.4790041,127.0656864,가스충전소,서울특별시 강남구 금연환경 조성 및 간접흡연 피해방지 조례 제5조,100000,서울특별시 강남구 개포동 565-3
강남대로 동측,37.4872446,127.0327813,거리,서울특별시 강남구 금연환경 조성 및 간접흡연 피해방지 조례 제5조,100000,서울특별시 강남구 강남대로
강남대로,37.4872446,127.0327813,거리,서울특별시 강남구 금연환경 조성 및 간접흡연 피해방지 조례 제5조,100000,서울특별시 강남구 강남대로
개포개나리공원,37.4906129,127.074326,공원,서울특별시 강남구 금연환경 조성 및 간접흡연 피해방지 조례 제5조,100000,서울특별시 강남구 일원동 612
개포은행나무공원,37.4789643,127.0609282,공원,서울특별시 강남구 금연환경 조성 및 간접흡연 피해방지 조례 제5조,100000,서울특별시 강남구 포이동 220
개포목련공원,37.4789643,127.0609282,공원,서울특별시 강남구 금연환경 조성 및 간접흡연 피해방지 조례 제5조,100000,서울특별시 강남구 포이동 176
일원은행나무공원,37.491986,127.0769687,공원,서울특별시 강남구 금연환경 조성 및 간접흡연 피해방지 조례 제5조,100000,서울특별시 강남구 일원동 615-2
일원목련공원,37.4914149,127.0855621,공원,서울특별시 강남구 금연환경 조성 및 간접흡연 피해방지 조례 제5조,100000,서울특별시 강남구 일원동 658
일원까치공원,37.4920442,127.0881735,공원,서울특별시 강남구 금연환경 조성 및 간접흡연 피해방지 조례 제5조,100000,서울특별시 강남구 일원동 712-4
궁마을공원,37.4848147,127.0994013,공원,서울특별시 강남구 금연환경 조성 및 간접흡연 피해방지 조례 제5조,100000,서울특별시 강남구 수서동 465-15
예지공원,37.4919364,127.0731607,공원,서울특별시 강남구 금연환경 조성 및 간접흡연 피해방지 조례 제5조,100000,서울특별시 강남구 개포동 12-7
한마음공원,37.4959964,127.0757885,공원,서울특별시 강남구 금연환경 조성 및 간접흡연 피해방지 조례 제5조,100000,서울특별시 강남구 개포동 12-3
대모산도시자연공원,37.4810133,127.0801089,공원,서울특별시 강남구 금연환경 조성 및 간접흡연 피해방지 조례 제5조,100000,서울특별시 강남구 일원동 산52-1 일대
인능산도시자연공원,37.4692712,127.1073203,공원,서울특별시 강남구 금연환경 조성 및 간접흡연 피해방지 조례 제5조,100000,서울특별시 강남구 세곡동 산48-1 일대
일원장미공원,37.4806646,127.0807035,공원,서울특별시 강남구 금연환경 조성 및 간접흡연 피해방지 조례 제5조,100000,서울특별시 강남구 일원동 732-4
일원개나리공원,37.4829771,127.0764826,공원,서울특별시 강남구 금연환경 조성 및 간접흡연 피해방지 조례 제5조,100000,서울특별시 강남구 일원동 730-3
일원느티나무공원,37.4830306,127.0774464,공원,서울특별시 강남구 금연환경 조성 및 간접흡연 피해방지 조례 제5조,100000,서울특별시 강남구 일원동 730-2
일원소나무공원,37.4840446,127.081768,공원,서울특별시 강남구 금연환경 조성 및 간접흡연 피해방지 조례 제5조,100000,서울특별시 강남구 일원동 718-1
일원상록수공원,37.4820854,127.0821945,공원,서울특별시 강남구 금연환경 조성 및 간접흡연 피해방지 조례 제5조,100000,서울특별시 강남구 일원동 734-1
일원비둘기공원,37.4832708,127.0859836,공원,서울특별시 강남구 금연환경 조성 및 간접흡연 피해방지 조례 제5조,100000,서울특별시 강남구 일원동 735-1
일원진달래공원,37.484737,127.0847209,공원,서울특별시 강남구 금연환경 조성 및 간접흡연 피해방지 조례 제5조,100000,서울특별시 강남구 일원동 716-1
일원새싹공원,37.4847553,127.0890751,공원,서울특별시 강남구 금연환경 조성 및 간접흡연 피해방지 조례 제5조,100000,서울특별시 강남구 수서동 746-1
수서까치공원,37.4871237,127.0979375,공원,서울특별시 강남구 금연환경 조성 및 간접흡연 피해방지 조례 제5조,100000,서울특별시 강남구 수서동 736-1
수서은행나무공원,37.4913306,127.0998059,공원,서울특별시 강남구 금연환경 조성 및 간접흡연 피해방지 조례 제5조,100000,서울특별시 강남구 수서동 707-1
수서목련공원,37.4905488,127.1037562,공원,서울특별시 강남구 금연환경 조성 및 간접흡연 피해방지 조례 제5조,100000,서울특별시 강남구 수서동 712-1
수서개나리공원,37.4875022,127.1054073,공원,서울특별시 강남구 금연환경 조성 및 간접흡연 피해방지 조례 제5조,100000,서울특별시 강남구 수서동 723-1
아래반고개공원,37.4638577,127.1070942,공원,서울특별시 강남구 금연환경 조성 및 간접흡연 피해방지 조례 제5조,100000,서울특별시 강남구 세곡동 129-13
윗반 고개공원,37.4656608,127.1091449,공원,서울특별시 강남구 금연환경 조성 및 간접흡연 피해방지 조례 제5조,100000,서울특별시 강남구 세곡동 99-6
윗반 고개공원,37.4657271,127.1094493,공원,서울특별시 강남구 금연환경 조성 및 간접흡연 피해방지 조례 제5조,100000,서울특별시 강남구 세곡동 100-15
윗반 고개공원,37.4657995,127.109367,공원,서울특별시 강남구 금연환경 조성 및 간접흡연 피해방지 조례 제5조,100000,서울특별시 강남구 세곡동 102-9
달터공원,37.4789643,127.0609282,공원,서울특별시 강남구 금연환경 조성 및 간접흡연 피해방지 조례 제5조,100000,서울특별시 강남구 개포동 156외 23필지
도곡공원,37.4898434,127.0438136,공원,서울특별시 강남구 금연환경 조성 및 간접흡연 피해방지 조례 제5조,100000,서울특별시 강남구 도곡동 산31-1외93필지
개포공원,37.4830336,127.063861,공원,서울특별시 강남구 금연환경 조성 및 간접흡연 피해방지 조례 제5조,100000,서울특별시 강남구 개포동 139
청담공원,37.5231998,127.0486655,공원,서울특별시 강남구 금연환경 조성 및 간접흡연 피해방지 조례 제5조,100000,서울특별시 강남구 청담동 66외 4필지
학동공원,37.5155317,127.0251861,공원,서울특별시 강남구 금연환경 조성 및 간접흡연 피해방지 조례 제5조,100000,서울특별시 강남구 논현동 26
역삼공원,37.4999072,127.0373932,공원,서울특별시 강남구 금연환경 조성 및 간접흡연 피해방지 조례 제5조,100000,서울특별시 강남구 역삼동 635외 1필지
싸리고개공원,37.4898434,127.0438136,공원,서울특별시 강남구 금연환경 조성 및 간접흡연 피해방지 조례 제5조,100000,서울특별시 강남구 도곡동 550외 5필지
봉은사공원,37.5139848,127.0565207,공원,서울특별시 강남구 금연환경 조성 및 간접흡연 피해방지 조례 제5조,100000,서울특별시 강남구 삼성동 75외 4필지
도산공원,37.5239121,127.0355914,공원,서울특별시 강남구 금연환경 조성 및 간접흡연 피해방지 조례 제5조,100000,서울특별시 강남구 신사동 649-9
늘벗공원,37.4896066,127.0571491,공원,서울특별시 강남구 금연환경 조성 및 간접흡연 피해방지 조례 제5조,100000,서울특별시 강남구 대치동 501
한티공원,37.4994914,127.0610527,공원,서울특별시 강남구 금연환경 조성 및 간접흡연 피해방지 조례 제5조,100000,서울특별시 강남구 대치동 212-1 외 13필지
청수공원,37.5231998,127.0486655,공원,서울특별시 강남구 금연환경 조성 및 간접흡연 피해방지 조례 제5조,100000,서울특별시 강남구 청담동 134-13외 12필지
대청공원,37.4927795,127.0828179,공원,서울특별시 강남구 금연환경 조성 및 간접흡연 피해방지 조례 제5조,100000,서울특별시 강남구 일원동 621
포이공원,37.4789643,127.0609282,공원,서울특별시 강남구 금연환경 조성 및 간접흡연 피해방지 조례 제5조,100000,서울특별시 강남구 개포동 1239-21외 4필지
대진공원,37.4960323,127.0787736,공원,서울특별시 강남구 금연환경 조성 및 간접흡연 피해방지 조례 제5조,100000,서울특별시 강남구 개포동 13-1
한솔공원,37.4809196,127.0781655,공원,서울특별시 강남구 금연환경 조성 및 간접흡연 피해방지 조례 제5조,100000,서울특별시 강남구 일원동 732
윗반 고개공원,37.4658871,127.1092767,공원,서울특별시 강남구 금연환경 조성 및 간접흡연 피해방지 조례 제5조,100000,서울특별시 강남구 세곡동 102-24
윗반 고개공원,37.4657271,127.1094493,공원,서울특별시 강남구 금연환경 조성 및 간접흡연 피해방지 조례 제5조,100000,서울특별시 강남구 세곡동 100-15
윗반 고개공원,37.4658084,127.1092347,공원,서울특별시 강남구 금연환경 조성 및 간접흡연 피해방지 조례 제5조,100000,서울특별시 강남구 세곡동 102-8
윗반 고개공원,37.4656964,127.1091987,공원,서울특별시 강남구 금연환경 조성 및 간접흡연 피해방지 조례 제5조,100000,서울특별시 강남구 세곡동 102-17
윗반 고개공원,37.4659331,127.1092795,공원,서울특별시 강남구 금연환경 조성 및 간접흡연 피해방지 조례 제5조,100000,서울특별시 강남구 세곡동 102-22
학여울공원,37.4789643,127.0609282,공원,서울특별시 강남구 금연환경 조성 및 간접흡연 피해방지 조례 제5조,100000,서울특별시 강남구 개포동 183-1외 1필지
배밭공원,37.4789643,127.0609282,공원,서울특별시 강남구 금연환경 조성 및 간접흡연 피해방지 조례 제5조,100000,서울특별시 강남구 개포동 181외 1필지
늘푸른공원,37.4898686,127.0774358,공원,서울특별시 강남구 금연환경 조성 및 간접흡연 피해방지 조례 제5조,100000,서울특별시 강남구 일원동 690
개포서공원,37.4789643,127.0609282,공원,서울특별시 강남구 금연환경 조성 및 간접흡연 피해방지 조례 제5조,100000,서울특별시 강남구 개포동 180외 2필지
대치공원,37.4951065,127.0698635,공원,서울특별시 강남구 금연환경 조성 및 간접흡연 피해방지 조례 제5조,100000,서울특별시 강남구 대치동 512
윗반 고개공원,37.46592,127.1094583,공원,서울특별시 강남구 금연환경 조성 및 간접흡연 피해방지 조례 제5조,100000,서울특별시 강남구 세곡동 104-11
윗반 고개공원,37.4658308,127.1094537,공원,서울특별시 강남구 금연환경 조성 및 간접흡연 피해방지 조례 제5조,100000,서울특별시 강남구 세곡동 101
윗반 고개공원,37.4657088,127.1092867,공원,서울특별시 강남구 금연환경 조성 및 간접흡연 피해방지 조례 제5조,100000,서울특별시 강남구 세곡동 102-28
윗반 고개공원,37.4656455,127.1092603,공원,서울특별시 강남구 금연환경 조성 및 간접흡연 피해방지 조례 제5조,100000,서울특별시 강남구 세곡동 102-29
독골공원,37.4845355,127.0468249,공원,서울특별시 강남구 금연환경 조성 및 간접흡연 피해방지 조례 제5조,100000,서울특별시 강남구 도곡동 461
탄천공원,37.4874195,127.1062745,공원,서울특별시 강남구 금연환경 조성 및 간접흡연 피해방지 조례 제5조,100000,서울특별시 강남구 수서동 722
개포동공원,37.4789643,127.0609282,공원,서울특별시 강남구 금연환경 조성 및 간접흡연 피해방지 조례 제5조,100000,서울특별시 강남구 개포동 182-1 외2필지
청룡공원,37.4855782,127.0543594,공원,서울특별시 강남구 금연환경 조성 및 간접흡연 피해방지 조례 제5조,100000,서울특별시 강남구 개포동 649-1
은곡마을공원,37.4680242,127.1004438,공원,서울특별시 강남구 금연환경 조성 및 간접흡연 피해방지 조례 제5조,100000,서울특별시 강남구 세곡동 369-3
쟁골공원,37.459131,127.1005944,공원,서울특별시 강남구 금연환경 조성 및 간접흡연 피해방지 조례 제5조,100000,서울특별시 강남구 세곡동 233-2
못골공원,37.4735563,127.1001604,공원,서울특별시 강남구 금연환경 조성 및 간접흡연 피해방지 조례 제5조,100000,서울특별시 강남구 자곡동 447-23
못골공원,37.4735051,127.1004143,공원,서울특별시 강남구 금연환경 조성 및 간접흡연 피해방지 조례 제5조,100000,서울특별시 강남구 자곡동 421-1
윗방죽마을공원,37.4702593,127.1046598,공원,서울특별시 강남구 금연환경 조성 및 간접흡연 피해방지 조례 제5조,100000,서울특별시 강남구 율현동 308-29
아랫방죽마을공원,37.4732596,127.1082045,공원,서울특별시 강남구 금연환경 조성 및 간접흡연 피해방지 조례 제5조,100000,서울특별시 강남구 율현동 194-1
충현1 공원,37.5046842,127.036522,공원,서울특별시 강남구 금연환경 조성 및 간접흡연 피해방지 조례 제5조,100000,서울특별시 강남구 역삼동 666-2
충현2 공원,37.5053514,127.0382393,공원,서울특별시 강남구 금연환경 조성 및 간접흡연 피해방지 조례 제5조,100000,서울특별시 강남구 역삼동 663-19
충현2 공원,37.5054137,127.0384693,공원,서울특별시 강남구 금연환경 조성 및 간접흡연 피해방지 조례 제5조,100000,서울특별시 강남구 역삼동 663-20
삼성동차고지공원,37.5155653,127.0662647,공원,서울특별시 강남구 금연환경 조성 및 간접흡연 피해방지 조례 제5조,100000,서울특별시 강남구 삼성1동 171-4
청담가로공원,37.5139848,127.0565207,공원,서울특별시 강남구 금연환경 조성 및 간접흡연 피해방지 조례 제5조,100000,서울특별시 강남구 삼성동80외 7필지
쌍용가로공원,37.4994914,127.0610527,공원,서울특별시 강남구 금연환경 조성 및 간접흡연 피해방지 조례 제5조,100000,서울특별시 강남구 대치동 5-3외 2필지
대치동 자투리녹지,37.4994914,127.0610527,공원,서울특별시 강남구 금연환경 조성 및 간접흡연 피해방지 조례 제5조,100000,서울특별시 강남구 대치동1017-3외 1필지
수서동 궁마을 쉼터,37.4842819,127.0965436,공원,서울특별시 강남구 금연환경 조성 및 간접흡연 피해방지 조례 제5조,100000,서울특별시 강남구 수서동 501-1
삼성동 자투리녹지,37.5129778,127.0487958,공원,서울특별시 강남구 금연환경 조성 및 간접흡연 피해방지 조례 제5조,100000,서울특별시 강남구 삼성동 46-15
어린이공원1(어린이공원),37.4620948,127.101929,공원,서울특별시 강남구 금연환경 조성 및 간접흡연 피해방지 조례 제5조,100000,서울특별시 강남구 세곡동 522-1
갈매기공원,37.5309272,127.0345428,공원,서울특별시 강남구 금연환경 조성 및 간접흡연 피해방지 조례 제5조,100000,서울특별시 강남구 압구정동 480
신사공원,37.5267081,127.0214576,공원,서울특별시 강남구 금연환경 조성 및 간접흡연 피해방지 조례 제5조,100000,서울특별시 강남구 압구정동 422
삼성은행나무공원,37.5139848,127.0565207,공원,서울특별시 강남구 금연환경 조성 및 간접흡연 피해방지 조례 제5조,100000,서울특별시 강남구 삼성동 14외 1필지
길섶공원,37.4975499,127.0488965,공원,서울특별시 강남구 금연환경 조성 및 간접흡연 피해방지 조례 제5조,100000,서울특별시 강남구 역삼동 757-1
영동공원,37.4980245,127.0486372,공원,서울특별시 강남구 금연환경 조성 및 간접흡연 피해방지 조례 제5조,100000,서울특별시 강남구 역삼동 755-7
보은공원,37.4979014,127.0482305,공원,서울특별시 강남구 금연환경 조성 및 간접흡연 피해방지 조례 제5조,100000,서울특별시 강남구 역삼동 754-4
매봉공원,37.4920871,127.0502685,공원,서울특별시 강남구 금연환경 조성 및 간접흡연 피해방지 조례 제5조,100000,서울특별시 강남구 도곡동 527-7
언주공원,37.4999072,127.0373932,공원,서울특별시 강남구 금연환경 조성 및 간접흡연 피해방지 조례 제5조,100000,서울특별시 강남구 역삼동 754-7외 1필지
도성공원,37.4999072,127.0373932,공원,서울특별시 강남구 금연환경 조성 및 간접흡연 피해방지 조례 제5조,100000,서울특별시 강남구 역삼동 713-15외 1필지
송운공원,37.4992783,127.0490352,공원,서울특별시 강남구 금연환경 조성 및 간접흡연 피해방지 조례 제5조,100000,서울특별시 강남구 역삼동 755-9
반달공원,37.5161862,127.0428581,공원,서울특별시 강남구 금연환경 조성 및 간접흡연 피해방지 조례 제5조,100000,서울특별시 강남구 삼성동 7-4
배꽃공원,37.5162471,127.0445903,공원,서울특별시 강남구 금연환경 조성 및 간접흡연 피해방지 조례 제5조,100000,서울특별시 강남구 삼성동 11-3
큰골공원,37.4938114,127.054726,공원,서울특별시 강남구 금연환경 조성 및 간접흡연 피해방지 조례 제5조,100000,서울특별시 강남구 대치동 888-3
새뜰공원,37.4965622,127.0510057,공원,서울특별시 강남구 금연환경 조성 및 간접흡연 피해방지 조례 제5조,100000,서울특별시 강남구 역삼동 765-30
샘터공원,37.5175682,127.046733,공원,서울특별시 강남구 금연환경 조성 및 간접흡연 피해방지 조례 제5조,100000,서울특별시 강남구 삼성동 16-4
학봉공원,37.5173474,127.044048,공원,서울특별시 강남구 금연환경 조성 및 간접흡연 피해방지 조례 제5조,100000,서울특별시 강남구 삼성동 50-3
다솜공원,37.4969822,127.048103,공원,서울특별시 강남구 금연환경 조성 및 간접흡연 피해방지 조례 제5조,100000,서울특별시 강남구 역삼동 763-18
어린이공원2(어린이공원),37.4685794,127.1222702,공원,서울특별시 강남구 금연환경 조성 및 간접흡연 피해방지 조례 제5조,100000,서울특별시 강남구 세곡동 526-2
출발마당(근린공원),37.4824267,127.0494636,공원,서울특별시 강남구 금연환경 조성 및 간접흡연 피해방지 조례 제5조,100000,서울특별시 강남구 개포동 1267-1
경복아파트 소공원,37.5093526,127.0388621,공원,서울특별시 강남구 금연환경 조성 및 간접흡연 피해방지 조례 제5조,100000,서울특별시 강남구 논현동 276-2
강남 보금자리 지구 근린공원1호(근린공원),37.4692712,127.1073203,공원,서울특별시 강남구 금연환경 조성 및 간접흡연 피해방지 조례 제5조,100000,서울특별시 강남구 세곡동 603번지
강남 보금자리 지구 근린공원2호(근린공원),37.474172,127.0950243,공원,서울특별시 강남구 금연환경 조성 및 간접흡연 피해방지 조례 제5조,100000,서울특별시 강남구 자곡동 625번지
강남 보금자리 지구 근린공원3호(근린공원),37.474172,127.0950243,공원,서울특별시 강남구 금연환경 조성 및 간접흡연 피해방지 조례 제5조,100000,서울특별시 강남구 자곡동 615번지
강남 보금자리 지구 근린공원4호(근린공원),37.474172,127.0950243,공원,서울특별시 강남구 금연환경 조성 및 간접흡연 피해방지 조례 제5조,100000,서울특별시 강남구 자곡동 608번지 외 1
강남 보금자리 지구 근린공원5호(근린공원),37.474172,127.0950243,공원,서울특별시 강남구 금연환경 조성 및 간접흡연 피해방지 조례 제5조,100000,서울특별시 강남구 자곡동 607번지
강남 보금자리 지구 근린공원6호(근린공원),37.474172,127.0950243,공원,서울특별시 강남구 금연환경 조성 및 간접흡연 피해방지 조례 제5조,100000,서울특별시 강남구 자곡동 647번지
강남 보금자리 지구 근린공원7호(근린공원),37.474172,127.0950243,공원,서울특별시 강남구 금연환경 조성 및 간접흡연 피해방지 조례 제5조,100000,서울특별시 강남구 자곡동 627번지 외 1
강남 보금자리 지구 수변공원1호(주제공원),37.4692712,127.1073203,공원,서울특별시 강남구 금연환경 조성 및 간접흡연 피해방지 조례 제5조,100000,서울특별시 강남구 세곡동 604번지 외 1
강남 보금자리 지구 수변공원2호(주제공원),37.4692712,127.1073203,공원,서울특별시 강남구 금연환경 조성 및 간접흡연 피해방지 조례 제5조,100000,서울특별시 강남구 세곡동 537번지
강남 보금자리 지구(소공원),37.4692712,127.1073203,공원,서울특별시 강남구 금연환경 조성 및 간접흡연 피해방지 조례 제5조,100000,서울특별시 강남구 세곡동 549번지
세곡2 근린공원 1(근린공원),37.4881568,127.0855952,공원,서울특별시 강남구 금연환경 조성 및 간접흡연 피해방지 조례 제5조,100000,서울특별시 강남구 수서동 525답 일원
세곡2 근린공원 2(근린공원),37.4881568,127.0855952,공원,서울특별시 강남구 금연환경 조성 및 간접흡연 피해방지 조례 제5조,100000,서울특별시 강남구 수서동 569답 일원
세곡2 소공원1(소공원),37.4881568,127.0855952,공원,서울특별시 강남구 금연환경 조성 및 간접흡연 피해방지 조례 제5조,100000,서울특별시 강남구 율현동 254-3답 일원
세곡2 소공원 2(소공원),37.4933789,127.0800728,공원,서울특별시 강남구 금연환경 조성 및 간접흡연 피해방지 조례 제5조,100000,서울특별시 강남구 율현동 192-4구 일원
세곡2 역사공원 1(주제공원),37.4880466,127.1029873,공원,서울특별시 강남구 금연환경 조성 및 간접흡연 피해방지 조례 제5조,100000,서울특별시 강남구 수서동 532답 일원
세곡동 근린공원1(근린공원),37.4600486,127.1015872,공원,서울특별시 강남구 금연환경 조성 및 간접흡연 피해방지 조례 제5조,100000,서울특별시 강남구 세곡동 525-1
도곡동 426-9(로덴하우스)(근린공원),37.4861363,127.0462223,공원,서울특별시 강남구 금연환경 조성 및 간접흡연 피해방지 조례 제5조,100000,서울특별시 강남구 도곡동 462-9
역삼동 716-5(SK뷰)(근린공원),37.50246,127.0493726,공원,서울특별시 강남구 금연환경 조성 및 간접흡연 피해방지 조례 제5조,100000,서울특별시 강남구 역삼동 716-5
대모산역 자투리녹지(근린공원),37.4789643,127.0609282,공원,서울특별시 강남구 금연환경 조성 및 간접흡연 피해방지 조례 제5조,100000,서울특별시 강남구 개포동 700외
개포동역 사거리 자투리녹지(근린공원),37.4886855,127.0675707,공원,서울특별시 강남구 금연환경 조성 및 간접흡연 피해방지 조례 제5조,100000,서울특별시 강남구 개포동 186-19
도곡진달래2단지,37.4939742,127.0471811,공원,서울특별시 강남구 금연환경 조성 및 간접흡연 피해방지 조례 제5조,100000,서울특별시 강남구 도곡동 539-6
선정릉공원,37.5073294,127.0471528,공원,서울특별시 강남구 금연환경 조성 및 간접흡연 피해방지 조례 제5조,100000,서울특별시 강남구 삼성동 131-11번지
논현까치공원,37.5084738,127.0250833,공원,서울특별시 강남구 금연환경 조성 및 간접흡연 피해방지 조례 제5조,100000,서울특별시 강남구 논현동 162-11
논현목련공원,37.5108353,127.0266972,공원,서울특별시 강남구 금연환경 조성 및 간접흡연 피해방지 조례 제5조,100000,서울특별시 강남구 논현동 137-18
논현은행나무공원,37.5126012,127.0224235,공원,서울특별시 강남구 금연환경 조성 및 간접흡연 피해방지 조례 제5조,100000,서울특별시 강남구 논현동 47-13
논현개나리공원,37.5111874,127.0300758,공원,서울특별시 강남구 금연환경 조성 및 간접흡연 피해방지 조례 제5조,100000,서울특별시 강남구 논현동 150-5
논현무궁화공원,37.5066323,127.0306901,공원,서울특별시 강남구 금연환경 조성 및 간접흡연 피해방지 조례 제5조,100000,서울특별시 강남구 논현동 205-7
논현소나무공원,37.5156684,127.0374588,공원,서울특별시 강남구 금연환경 조성 및 간접흡연 피해방지 조례 제5조,100000,서울특별시 강남구 논현동 239
학동공원,37.5116297,127.0387639,공원,서울특별시 강남구 금연환경 조성 및 간접흡연 피해방지 조례 제5조,100000,서울특별시 강남구 논현동 263-23
신사은행나무공원,37.5205448,127.0260258,공원,서울특별시 강남구 금연환경 조성 및 간접흡연 피해방지 조례 제5조,100000,서울특별시 강남구 신사동 558
신사목련공원,37.5228822,127.025819,공원,서울특별시 강남구 금연환경 조성 및 간접흡연 피해방지 조례 제5조,100000,서울특별시 강남구 신사동 567-37
신사무궁화공원,37.5241146,127.0319245,공원,서울특별시 강남구 금연환경 조성 및 간접흡연 피해방지 조례 제5조,100000,서울특별시 강남구 신사동 625-5
신사까치공원,37.5234437,127.0292203,공원,서울특별시 강남구 금연환경 조성 및 간접흡연 피해방지 조례 제5조,100000,서울특별시 강남구 신사동 597
신사개나리공원,37.5256178,127.0294286,공원,서울특별시 강남구 금연환경 조성 및 간접흡연 피해방지 조례 제5조,100000,서울특별시 강남구 신사동 609-2
압구정목련공원,37.5320389,127.0337512,공원,서울특별시 강남구 금연환경 조성 및 간접흡연 피해방지 조례 제5조,100000,서울특별시 강남구 압구정 466
압구정은행나무공원,37.5306729,127.0314313,공원,서울특별시 강남구 금연환경 조성 및 간접흡연 피해방지 조례 제5조,100000,서울특별시 강남구 압구정 459
삼성목련공원,37.5184985,127.0539509,공원,서울특별시 강남구 금연환경 조성 및 간접흡연 피해방지 조례 제5조,100000,서울특별시 강남구 삼성동 55-1
삼성까치공원,37.5183075,127.0606196,공원,서울특별시 강남구 금연환경 조성 및 간접흡연 피해방지 조례 제5조,100000,서울특별시 강남구 삼성동 85
청담은행나무공원,37.5251376,127.0442417,공원,서울특별시 강남구 금연환경 조성 및 간접흡연 피해방지 조례 제5조,100000,서울특별시 강남구 청담동 94.4
청담목련공원,37.5229625,127.0498309,공원,서울특별시 강남구 금연환경 조성 및 간접흡연 피해방지 조례 제5조,100000,서울특별시 강남구 청담동 51
도곡까치공원,37.4833096,127.0450947,공원,서울특별시 강남구 금연환경 조성 및 간접흡연 피해방지 조례 제5조,100000,서울특별시 강남구 도곡동 455
대치청실아파트 소공원1,37.494199,127.0583614,공원,서울특별시 강남구 금연환경 조성 및 간접흡연 피해방지 조례 제5조,100000,서울특별시 강남구 대치동 633
대치청실아파트 소공원2,37.494971,127.0609357,공원,서울특별시 강남구 금연환경 조성 및 간접흡연 피해방지 조례 제5조,100000,서울특별시 강남구 대치동 610
율현공원(근린공원),37.4881568,127.0855952,공원,서울특별시 강남구 금연환경 조성 및 간접흡연 피해방지 조례 제5조,100000,서울특별시 강남구 율현동 92-4 일원
도곡목련공원,37.4848991,127.0443146,공원,서울특별시 강남구 금연환경 조성 및 간접흡연 피해방지 조례 제5조,100000,서울특별시 강남구 도곡동 415-3
역삼장미공원,37.4953104,127.0446004,공원,서울특별시 강남구 금연환경 조성 및 간접흡연 피해방지 조례 제5조,100000,서울특별시 강남구 역삼동 780-25
역삼까치공원,37.4972085,127.030726,공원,서울특별시 강남구 금연환경 조성 및 간접흡연 피해방지 조례 제5조,100000,서울특별시 강남구 역삼동 824-10
역삼무궁화공원,37.4938191,127.0321969,공원,서울특별시 강남구 금연환경 조성 및 간접흡연 피해방지 조례 제5조,100000,서울특별시 강남구 역삼동 830-23
역삼개나리공원,37.4975547,127.0362551,공원,서울특별시 강남구 금연환경 조성 및 간접흡연 피해방지 조례 제5조,100000,서울특별시 강남구 역삼동 739-15
역삼소나무공원,37.4909452,127.033686,공원,서울특별시 강남구 금연환경 조성 및 간접흡연 피해방지 조례 제5조,100000,서울특별시 강남구 역삼동 836-21
역삼은행나무공원,37.505393,127.0311947,공원,서울특별시 강남구 금연환경 조성 및 간접흡연 피해방지 조례 제5조,100000,서울특별시 강남구 역삼동 611
대치목련공원,37.4997876,127.0581713,공원,서울특별시 강남구 금연환경 조성 및 간접흡연 피해방지 조례 제5조,100000,서울특별시 강남구 대치동 929-10
대치까치공원,37.4969367,127.0591854,공원,서울특별시 강남구 금연환경 조성 및 간접흡연 피해방지 조례 제5조,100000,서울특별시 강남구 대치동 1014-4
대치은행나무공원,37.501633,127.0515319,공원,서울특별시 강남구 금연환경 조성 및 간접흡연 피해방지 조례 제5조,100000,서울특별시 강남구 대치동 899-25
개포까치공원,37.4836677,127.0608782,공원,서울특별시 강남구 금연환경 조성 및 간접흡연 피해방지 조례 제5조,100000,서울특별시 강남구 개포동 169-3
개포공원,37.4852189,127.0716528,공원,서울특별시 강남구 금연환경 조성 및 간접흡연 피해방지 조례 제5조,100000,서울특별시 강남구 개포동 190
포이동마을마당,37.4727244,127.0518487,마을마당,서울특별시 강남구 금연환경 조성 및 간접흡연 피해방지 조례 제5조,100000,서울특별시 강남구 개포동 1168-7
삼성동마을마당,37.5128013,127.046693,마을마당,서울특별시 강남구 금연환경 조성 및 간접흡연 피해방지 조례 제5조,100000,서울특별시 강남구 삼성동111-140
대치동 마을마당,37.4925263,127.057411,마을마당,서울특별시 강남구 금연환경 조성 및 간접흡연 피해방지 조례 제5조,100000,서울특별시 강남구 대치동650-2
싸리고개마을마당,37.4887649,127.0342636,마을마당,서울특별시 강남구 금연환경 조성 및 간접흡연 피해방지 조례 제5조,100000,서울특별시 강남구 도곡동 944-8
반고개마을마당,37.4692712,127.1073203,마을마당,서울특별시 강남구 금연환경 조성 및 간접흡연 피해방지 조례 제5조,100000,서울특별시 강남구 세곡동100-4외 1필지
대치동우리동네 숲,37.4994914,127.0610527,마을마당,서울특별시 강남구 금연환경 조성 및 간접흡연 피해방지 조례 제5조,100000,서울특별시 강남구 대치동979-1외 2필지
역삼 롯데 마을마당,37.4927895,127.0353212,마을마당,서울특별시 강남구 금연환경 조성 및 간접흡연 피해방지 조례 제5조,100000,서울특별시 강남구 역삼동 835-69
배곶이 마을마당(상아아파트 앞),37.5128031,127.0534131,마을마당,서울특별시 강남구 금연환경 조성 및 간접흡연 피해방지 조례 제5조,100000,서울특별시 강남구 삼성동 111-61
개포동(구룡중) 마을마당,37.4831717,127.0599132,마을마당,서울특별시 강남구 금연환경 조성 및 간접흡연 피해방지 조례 제5조,100000,서울특별시 강남구 개포동 647
개포동(개일초) 마을마당,37.4831717,127.0599132,마을마당,서울특별시 강남구 금연환경 조성 및 간접흡연 피해방지 조례 제5조,100000,서울특별시 강남구 개포동 647
역삼동 마을마당(역삼동 공영주차장),37.4925507,127.0388536,마을마당,서울특별시 강남구 금연환경 조성 및 간접흡연 피해방지 조례 제5조,100000,서울특별시 강남구 역삼동 795-25
초록나라어린이집,37.5091184,127.0245829,어린이집,서울특별시 강남구 금연환경 조성 및 간접흡연 피해방지 조례 제5조,100000,서울특별시 강남구 강남대로124길 22 2층
세곡연두어린이집,37.474172,127.0950243,어린이집,서울특별시 강남구 금연환경 조성 및 간접흡연 피해방지 조례 제5조,100000,서울특별시 강남구 자곡로21
세곡푸르지오어린이집,37.4704781,127.0909543,어린이집,서울특별시 강남구 금연환경 조성 및 간접흡연 피해방지 조례 제5조,100000,서울특별시 강남구 자곡로21 LH 푸르지오아파트 단지내
수연어린이집,37.5124091,127.0455419,어린이집,서울특별시 강남구 금연환경 조성 및 간접흡연 피해방지 조례 제5조,100000,서울특별시 강남구 봉은사로59길 22
신한마리오어린이집,37.4994368,127.0398816,어린이집,서울특별시 강남구 금연환경 조성 및 간접흡연 피해방지 조례 제5조,100000,서울특별시 강남구 테헤란로 30길 27
예다솜어린이집,37.4692712,127.1073203,어린이집,서울특별시 강남구 금연환경 조성 및 간접흡연 피해방지 조례 제5조,100000,서울특별시 강남구 헌릉로571길 20
아이트라움어린이집,37.4937497,127.0830243,어린이집,서울특별시 강남구 금연환경 조성 및 간접흡연 피해방지 조례 제5조,100000,서울특별시 강남구 개포로124길 13
단비어린이집,37.4778096,127.0581182,어린이집,서울특별시 강남구 금연환경 조성 및 간접흡연 피해방지 조례 제5조,100000,서울특별시 강남구 언주로6길 10
미래클어린이집,37.478368,127.0614839,어린이집,서울특별시 강남구 금연환경 조성 및 간접흡연 피해방지 조례 제5조,100000,서울특별시 강남구 선릉로 7 23동 108호
보명어린이집,37.478368,127.0614839,어린이집,서울특별시 강남구 금연환경 조성 및 간접흡연 피해방지 조례 제5조,100000,서울특별시 강남구 선릉로 7
늘푸른어린이집,37.4938131,127.0838796,어린이집,서울특별시 강남구 금연환경 조성 및 간접흡연 피해방지 조례 제5조,100000,서울특별시 강남구 개포로128길 19
대청어린이집,37.490853,127.0835132,어린이집,서울특별시 강남구 금연환경 조성 및 간접흡연 피해방지 조례 제5조,100000,서울특별시 강남구 양재대로37길 19
빛나 어린이집,37.492615,127.0902134,어린이집,서울특별시 강남구 금연환경 조성 및 간접흡연 피해방지 조례 제5조,100000,서울특별시 강남구 양재대로55길10 121동 105호
아카데미어린이집,37.4937497,127.0830243,어린이집,서울특별시 강남구 금연환경 조성 및 간접흡연 피해방지 조례 제5조,100000,서울특별시 강남구 개포로124길 13
엄마손몬테소리어린이집,37.4913256,127.0822963,어린이집,서울특별시 강남구 금연환경 조성 및 간접흡연 피해방지 조례 제5조,100000,서울특별시 강남구 일원로5길 19
래미안도곡카운티어린이집,37.4939742,127.0471811,어린이집,서울특별시 강남구 금연환경 조성 및 간접흡연 피해방지 조례 제5조,100000,서울특별시 강남구 선릉로227 래미안도곡카운티아파트내
이레어린이집,37.5128026,127.042062,어린이집,서울특별시 강남구 금연환경 조성 및 간접흡연 피해방지 조례 제5조,100000,서울특별시 강남구 봉은사로 51길 42
조이 빅스맘 어린이집,37.4736938,127.0509411,어린이집,서울특별시 강남구 금연환경 조성 및 간접흡연 피해방지 조례 제5조,100000,서울특별시 강남구 논현로 6길 19
그림어린이집,37.4876572,127.0684907,어린이집,서울특별시 강남구 금연환경 조성 및 간접흡연 피해방지 조례 제5조,100000,서울특별시 강남구 삼성로14 개포동 주공아파트내
다솜어린이집,37.4890673,127.101008,어린이집,서울특별시 강남구 금연환경 조성 및 간접흡연 피해방지 조례 제5조,100000,서울특별시 강남구 광평로51길 27
동심에코비어린이집,37.4925325,127.0893074,어린이집,서울특별시 강남구 금연환경 조성 및 간접흡연 피해방지 조례 제5조,100000,서울특별시 강남구 양재대로 55길 10 수서아파트내
라온어린이집,37.466266,127.1167873,어린이집,서울특별시 강남구 금연환경 조성 및 간접흡연 피해방지 조례 제5조,100000,서울특별시 강남구 헌릉로20 강남LH1단지내
마술피리어린이집,37.474172,127.0950243,어린이집,서울특별시 강남구 금연환경 조성 및 간접흡연 피해방지 조례 제5조,100000,서울특별시 강남구 자곡로 21
몽실어린이집,37.4922401,127.0784896,어린이집,서울특별시 강남구 금연환경 조성 및 간접흡연 피해방지 조례 제5조,100000,서울특별시 강남구 개포로110길 15 우성7차아파트 내
베베클럽어린이집,37.474172,127.0950243,어린이집,서울특별시 강남구 금연환경 조성 및 간접흡연 피해방지 조례 제5조,100000,서울특별시 강남구 자곡로 21
서이어린이집,37.4692712,127.1073203,어린이집,서울특별시 강남구 금연환경 조성 및 간접흡연 피해방지 조례 제5조,100000,서울특별시 강남구 헌릉로 571길 20 강남LH1단지내
선재어린이집,37.50145,127.0563499,어린이집,서울특별시 강남구 금연환경 조성 및 간접흡연 피해방지 조례 제5조,100000,서울특별시 강남구 삼성로71길 31
일원사임당어린이집,37.4947955,127.0837668,어린이집,서울특별시 강남구 금연환경 조성 및 간접흡연 피해방지 조례 제5조,100000,서울특별시 강남구 개포로 648 동형빌딩101호
자람어린이집,37.4916658,127.0829367,어린이집,서울특별시 강남구 금연환경 조성 및 간접흡연 피해방지 조례 제5조,100000,서울특별시 강남구 일원로5길 29
지예어린이집,37.4932906,127.0847126,어린이집,서울특별시 강남구 금연환경 조성 및 간접흡연 피해방지 조례 제5조,100000,서울특별시 강남구 개포로128길 29-7
청마을어린이집,37.4932125,127.091405,어린이집,서울특별시 강남구 금연환경 조성 및 간접흡연 피해방지 조례 제5조,100000,서울특별시 강남구 양재대로55길 10 대청복지관내1층
하나어린이집,37.4932646,127.0858947,어린이집,서울특별시 강남구 금연환경 조성 및 간접흡연 피해방지 조례 제5조,100000,서울특별시 강남구 일원로3길 81
브니엘어린이집,37.4939654,127.0750977,어린이집,서울특별시 강남구 금연환경 조성 및 간접흡연 피해방지 조례 제5조,100000,서울특별시 강남구 개포로109길 5 304동 105호
SH공사으뜸어린이집,37.4941483,127.07879,어린이집,서울특별시 강남구 금연환경 조성 및 간접흡연 피해방지 조례 제5조,100000,서울특별시 강남구 개포로 621 SH공사 14동5호
강남어린이집,37.4922493,127.074588,어린이집,서울특별시 강남구 금연환경 조성 및 간접흡연 피해방지 조례 제5조,100000,서울특별시 강남구 개포로 615 강남종합사회복지관1층
개포아이트라움어린이집,37.4941843,127.0754343,어린이집,서울특별시 강남구 금연환경 조성 및 간접흡연 피해방지 조례 제5조,100000,서울특별시 강남구 개포로109길 21 대치2단지내(內)
목련어린이집,37.4940068,127.0777343,어린이집,서울특별시 강남구 금연환경 조성 및 간접흡연 피해방지 조례 제5조,100000,서울특별시 강남구 개포로 617-8
여명어린이집,37.5021027,127.0529092,어린이집,서울특별시 강남구 금연환경 조성 및 간접흡연 피해방지 조례 제5조,100000,서울특별시 강남구 역삼로67길 11
킹스키즈어린이집,37.4997974,127.0562271,어린이집,서울특별시 강남구 금연환경 조성 및 간접흡연 피해방지 조례 제5조,100000,서울특별시 강남구 도곡로73길 31-1
포스코어린이집,37.5057406,127.056107,어린이집,서울특별시 강남구 금연환경 조성 및 간접흡연 피해방지 조례 제5조,100000,서울특별시 강남구 테헤란로 440
아기사랑 어린이집,37.4903728,127.0401344,어린이집,서울특별시 강남구 금연환경 조성 및 간접흡연 피해방지 조례 제5조,100000,서울특별시 강남구 논현로 213 역삼럭키APT101동 109호
강남서머힐어린이집,37.4882588,127.0398234,어린이집,서울특별시 강남구 금연환경 조성 및 간접흡연 피해방지 조례 제5조,100000,서울특별시 강남구 남부순환로365길 43
강남영재어린이집,37.4872733,127.0406411,어린이집,서울특별시 강남구 금연환경 조성 및 간접흡연 피해방지 조례 제5조,100000,서울특별시 강남구 남부순환로365길 42
도곡사임당어린이집,37.4895458,127.0403265,어린이집,서울특별시 강남구 금연환경 조성 및 간접흡연 피해방지 조례 제5조,100000,서울특별시 강남구 논현로 218 2동 105호
사랑어린이집,37.4880176,127.0335219,어린이집,서울특별시 강남구 금연환경 조성 및 간접흡연 피해방지 조례 제5조,100000,서울특별시 강남구 강남대로54길 9 한우리교회
선우어린이집,37.4907331,127.0385003,어린이집,서울특별시 강남구 금연환경 조성 및 간접흡연 피해방지 조례 제5조,100000,서울특별시 강남구 도곡로18길 9
역삼럭키어린이집,37.4904143,127.0401859,어린이집,서울특별시 강남구 금연환경 조성 및 간접흡연 피해방지 조례 제5조,100000,서울특별시 강남구 논현로 213 102동 116호
이화어린이집,37.4891836,127.0402528,어린이집,서울특별시 강남구 금연환경 조성 및 간접흡연 피해방지 조례 제5조,100000,서울특별시 강남구 논현로51길 25현대그린APT105호
꿈사랑몬테소리어린이집,37.4936848,127.0507447,어린이집,서울특별시 강남구 금연환경 조성 및 간접흡연 피해방지 조례 제5조,100000,서울특별시 강남구 선릉로 221 206동 102호
도곡어린이집,37.4942818,127.0534976,어린이집,서울특별시 강남구 금연환경 조성 및 간접흡연 피해방지 조례 제5조,100000,서울특별시 강남구 선릉로 217
엔젤어린이집,37.4976836,127.0471597,어린이집,서울특별시 강남구 금연환경 조성 및 간접흡연 피해방지 조례 제5조,100000,서울특별시 강남구 언주로332 역삼푸르지오 106동 101호
예꿈어린이집,37.466675,127.101747,어린이집,서울특별시 강남구 금연환경 조성 및 간접흡연 피해방지 조례 제5조,100000,서울특별시 강남구 헌릉로 571길 20 강남LH e-편한세상아파트내
우리아이어린이집,37.483822,127.069113,어린이집,서울특별시 강남구 금연환경 조성 및 간접흡연 피해방지 조례 제5조,100000,서울특별시 강남구 삼성로 14 주공4단지 444동
은하수어린이집,37.5172363,127.0473248,어린이집,서울특별시 강남구 금연환경 조성 및 간접흡연 피해방지 조례 제5조,100000,서울특별시 강남구 자곡로 21 LH푸르지오 204동 104호
세곡키즈어린이집,37.5172363,127.0473248,어린이집,서울특별시 강남구 금연환경 조성 및 간접흡연 피해방지 조례 제5조,100000,서울특별시 강남구 자곡로 21LH푸르지오 215동 101호
아이린키즈어린이집,37.5162276,127.0485407,어린이집,서울특별시 강남구 금연환경 조성 및 간접흡연 피해방지 조례 제5조,100000,서울특별시 강남구 학동로 68길 29
세곡나비어린이집,37.4690094,127.1069041,어린이집,서울특별시 강남구 금연환경 조성 및 간접흡연 피해방지 조례 제5조,100000,서울특별시 강남구 밤고개로 286
세곡햇빛어린이집,37.4686478,127.1069954,어린이집,서울특별시 강남구 금연환경 조성 및 간접흡연 피해방지 조례 제5조,100000,서울특별시 강남구 밤고개로 286-1
아이비어린이집,37.4781515,127.1138035,어린이집,서울특별시 강남구 금연환경 조성 및 간접흡연 피해방지 조례 제5조,100000,서울특별시 강남구 자곡로260 한양수자인아파트 416동 105호
꼬망새어린이집,37.5692921,126.9850573,어린이집,서울특별시 강남구 금연환경 조성 및 간접흡연 피해방지 조례 제5조,100000,서울특별시 강남구 자곡로230자곡포레아파트 306동 102호
리엔아이어린이집,37.4781515,127.1138035,어린이집,서울특별시 강남구 금연환경 조성 및 간접흡연 피해방지 조례 제5조,100000,서울특별시 강남구 자곡로260 한양수자인 아파트 417동 104호
키움어린이집,37.4772967,127.0564081,어린이집,서울특별시 강남구 금연환경 조성 및 간접흡연 피해방지 조례 제5조,100000,서울특별시 강남구 언주로35동 우성6차아파트 106호
강남키즈랜드어린이집,37.4931477,127.0339512,어린이집,서울특별시 강남구 금연환경 조성 및 간접흡연 피해방지 조례 제5조,100000,서울특별시 강남구 강남구 역삼로 8길 11
GKL행복어린이집,37.5172509,127.0536578,어린이집,서울특별시 강남구 금연환경 조성 및 간접흡연 피해방지 조례 제5조,100000,서울특별시 강남구 강남구 삼성로122길 7 GKL 행복 어린이집
베스트베이비어린이집,37.4939654,127.0750977,어린이집,서울특별시 강남구 금연환경 조성 및 간접흡연 피해방지 조례 제5조,100000,서울특별시 강남구 개포로109길 5 218동 108호
베이비케슬어린이집,37.492341,127.0781235,어린이집,서울특별시 강남구 금연환경 조성 및 간접흡연 피해방지 조례 제5조,100000,서울특별시 강남구 개포로110길 15 114동 105호
우성 유아 어린이집,37.492341,127.0781235,어린이집,서울특별시 강남구 금연환경 조성 및 간접흡연 피해방지 조례 제5조,100000,서울특별시 강남구 개포로110길 15 101동 104호
애솔 어린이집,37.478368,127.0614839,어린이집,서울특별시 강남구 금연환경 조성 및 간접흡연 피해방지 조례 제5조,100000,서울특별시 강남구 선릉로 7 93동 109호
천사어린이집,37.4848024,127.0571779,어린이집,서울특별시 강남구 금연환경 조성 및 간접흡연 피해방지 조례 제5조,100000,서울특별시 강남구 개포로 311 902동 111호
강남베베하우스어린이집,37.4859342,127.0684077,어린이집,서울특별시 강남구 금연환경 조성 및 간접흡연 피해방지 조례 제5조,100000,서울특별시 강남구 삼성로 14 주공아파트 414동 102호
아름드리어린이집,37.4855371,127.0714351,어린이집,서울특별시 강남구 금연환경 조성 및 간접흡연 피해방지 조례 제5조,100000,서울특별시 강남구 삼성로 14 436동 105호
개포어린이집,37.4879498,127.0736883,어린이집,서울특별시 강남구 금연환경 조성 및 간접흡연 피해방지 조례 제5조,100000,서울특별시 강남구 영동대로3길 9
개포좋은어린이집,37.4835676,127.0607506,어린이집,서울특별시 강남구 금연환경 조성 및 간접흡연 피해방지 조례 제5조,100000,서울특별시 강남구 선릉로12길 10
사랑샘어린이집,37.4888326,127.071487,어린이집,서울특별시 강남구 금연환경 조성 및 간접흡연 피해방지 조례 제5조,100000,서울특별시 강남구 개포로 516 708동 106호
강남 아이트라움 어린이집,37.4934973,127.0829527,어린이집,서울특별시 강남구 금연환경 조성 및 간접흡연 피해방지 조례 제5조,100000,서울특별시 강남구 강남구 개포로124길 13 (일원동)
광림어린이집,37.5240393,127.0234316,어린이집,서울특별시 강남구 금연환경 조성 및 간접흡연 피해방지 조례 제5조,100000,서울특별시 강남구 강남구 논현로175길 49
리틀바움어린이집,37.4941843,127.0754343,어린이집,서울특별시 강남구 금연환경 조성 및 간접흡연 피해방지 조례 제5조,100000,서울특별시 강남구 강남구 개포로109길 21 대치2단지 관리동 1층
베스트에코비어린이집,37.4807917,127.0904871,어린이집,서울특별시 강남구 금연환경 조성 및 간접흡연 피해방지 조례 제5조,100000,서울특별시 강남구 강남구 광평로34길 55 강남데시앙포레아파트 105동 104
산들어린이집,37.4741609,127.0962152,어린이집,서울특별시 강남구 금연환경 조성 및 간접흡연 피해방지 조례 제5조,100000,서울특별시 강남구 강남구 자곡로3길 45 3길 45
숲속이네어린이집,37.4807917,127.0904871,어린이집,서울특별시 강남구 금연환경 조성 및 간접흡연 피해방지 조례 제5조,100000,서울특별시 강남구 강남구 광평로34길 55 강남데시앙포레아파트 109동 101호
신논현어린이집,37.5147364,127.0227444,어린이집,서울특별시 강남구 금연환경 조성 및 간접흡연 피해방지 조례 제5조,100000,서울특별시 강남구 강남구 강남대로146길 28 논현신동아파밀리에 102동 108호
자운어린이집,37.4835321,127.1039802,어린이집,서울특별시 강남구 금연환경 조성 및 간접흡연 피해방지 조례 제5조,100000,서울특별시 강남구 자곡로21
즐거운어린이집,37.4829571,127.0589875,어린이집,서울특별시 강남구 금연환경 조성 및 간접흡연 피해방지 조례 제5조,100000,서울특별시 강남구 개포로310
키즈열매어린이집,37.4835321,127.1039802,어린이집,서울특별시 강남구 금연환경 조성 및 간접흡연 피해방지 조례 제5조,100000,서울특별시 강남구 자곡로21
푸르내어린이집,37.4935677,127.0507717,어린이집,서울특별시 강남구 금연환경 조성 및 간접흡연 피해방지 조례 제5조,100000,서울특별시 강남구 선릉로 221 도곡렉슬아파트내
피노키오어린이집,37.4855371,127.0714351,어린이집,서울특별시 강남구 금연환경 조성 및 간접흡연 피해방지 조례 제5조,100000,서울특별시 강남구 삼성로 14
상록어린이집,37.4895553,127.075569,어린이집,서울특별시 강남구 금연환경 조성 및 간접흡연 피해방지 조례 제5조,100000,서울특별시 강남구 영동대로4길 10 공무원APT 9단지내(內)
소꿉 어린이집,37.4812032,127.0644888,어린이집,서울특별시 강남구 금연환경 조성 및 간접흡연 피해방지 조례 제5조,100000,서울특별시 강남구 선릉로 8 215동 101호
솔샘어린이집,37.4888326,127.071487,어린이집,서울특별시 강남구 금연환경 조성 및 간접흡연 피해방지 조례 제5조,100000,서울특별시 강남구 개포로 516 705동 106호
연세중앙어린이집,37.4888326,127.071487,어린이집,서울특별시 강남구 금연환경 조성 및 간접흡연 피해방지 조례 제5조,100000,서울특별시 강남구 개포로 516 604동 104호
전원몬테소리어린이집,37.4888326,127.071487,어린이집,서울특별시 강남구 금연환경 조성 및 간접흡연 피해방지 조례 제5조,100000,서울특별시 강남구 개포로 516 609동 104호
큰별어린이집,37.4888326,127.071487,어린이집,서울특별시 강남구 금연환경 조성 및 간접흡연 피해방지 조례 제5조,100000,서울특별시 강남구 개포로 516 603동 108호
하늘어린이집,37.4855371,127.0714351,어린이집,서울특별시 강남구 금연환경 조성 및 간접흡연 피해방지 조례 제5조,100000,서울특별시 강남구 삼성로 14 407동 107호
아이세상어린이집,37.4770911,127.0505239,어린이집,서울특별시 강남구 금연환경 조성 및 간접흡연 피해방지 조례 제5조,100000,서울특별시 강남구 개포로22길 50 1200-2 101호
해찬나래어린이집,37.4650552,127.0964486,어린이집,서울특별시 강남구 금연환경 조성 및 간접흡연 피해방지 조례 제5조,100000,서울특별시 강남구 자곡로 21 LH푸르지오 203동 102호
이베이베이트리어린이집,37.5039917,127.0340449,어린이집,서울특별시 강남구 금연환경 조성 및 간접흡연 피해방지 조례 제5조,100000,서울특별시 강남구 테헤란로 25길 53
우리어린이집,37.4876572,127.0684907,어린이집,서울특별시 강남구 금연환경 조성 및 간접흡연 피해방지 조례 제5조,100000,서울특별시 강남구 삼성로 14 주공아파트내
LH 서울어린이집,37.5142854,127.0409153,어린이집,서울특별시 강남구 금연환경 조성 및 간접흡연 피해방지 조례 제5조,100000,서울특별시 강남구 선릉로 121길 12
풀무원어린이집,37.4872829,127.1031088,어린이집,서울특별시 강남구 금연환경 조성 및 간접흡연 피해방지 조례 제5조,100000,서울특별시 강남구 광평로 280
삼성 꼬마숲 어린이집,37.5134518,127.0458974,어린이집,서울특별시 강남구 금연환경 조성 및 간접흡연 피해방지 조례 제5조,100000,서울특별시 강남구 봉은사로 61길 36
무지개어린이집,37.4781515,127.1138035,어린이집,서울특별시 강남구 금연환경 조성 및 간접흡연 피해방지 조례 제5조,100000,서울특별시 강남구 자곡로260 한양수자인아파트 407동 106호
미소별어린이집,37.4781515,127.1138035,어린이집,서울특별시 강남구 금연환경 조성 및 간접흡연 피해방지 조례 제5조,100000,서울특별시 강남구 자곡로260 한양수자인아파트 402동 102호
성아어린이집,37.4840417,127.0435827,어린이집,서울특별시 강남구 금연환경 조성 및 간접흡연 피해방지 조례 제5조,100000,서울특별시 강남구 논현로32길 16
대웅 리틀베어 어린이집,37.5143876,127.0654559,어린이집,서울특별시 강남구 금연환경 조성 및 간접흡연 피해방지 조례 제5조,100000,서울특별시 강남구 봉은사로114길 12
우리어린이집,37.512439,127.065545,어린이집,서울특별시 강남구 금연환경 조성 및 간접흡연 피해방지 조례 제5조,100000,서울특별시 강남구 봉은사로114길 13 서울의료원내(內)
무역센터 꿈나무어린이집,37.5130619,127.0586443,어린이집,서울특별시 강남구 금연환경 조성 및 간접흡연 피해방지 조례 제5조,100000,서울특별시 강남구 삼성1동 COEX 컨벤션센터 2층
삼성어린이집,37.5171924,127.0596506,어린이집,서울특별시 강남구 금연환경 조성 및 간접흡연 피해방지 조례 제5조,100000,서울특별시 강남구 영동대로122길 7-6
엔젤빅스맘 어린이집,37.465781,127.101441,어린이집,서울특별시 강남구 금연환경 조성 및 간접흡연 피해방지 조례 제5조,100000,서울특별시 강남구 세곡동 525 세곡리엔파크 아파트 512동 102호
엘림어린이집,37.4807917,127.0904871,어린이집,서울특별시 강남구 금연환경 조성 및 간접흡연 피해방지 조례 제5조,100000,서울특별시 강남구 수서동 559 강남데시앙포레아파트 관리동
예쁜꿈어린이집,37.4922401,127.0784896,어린이집,서울특별시 강남구 금연환경 조성 및 간접흡연 피해방지 조례 제5조,100000,서울특별시 강남구 일원동 615 우성7차아파트 107동 104호
윤슬어린이집,37.4737864,127.1017461,어린이집,서울특별시 강남구 금연환경 조성 및 간접흡연 피해방지 조례 제5조,100000,서울특별시 강남구 세곡동 602 LH강남아이파크 705동 102호
은가비어린이집,37.4757497,127.0488845,어린이집,서울특별시 강남구 금연환경 조성 및 간접흡연 피해방지 조례 제5조,100000,서울특별시 강남구 개포동 1223-1
창의나무아이파크어린이집,37.5024363,127.0466551,어린이집,서울특별시 강남구 금연환경 조성 및 간접흡연 피해방지 조례 제5조,100000,서울특별시 강남구 역삼동 709
아기우성 어린이집,37.4905083,127.0792227,어린이집,서울특별시 강남구 금연환경 조성 및 간접흡연 피해방지 조례 제5조,100000,서울특별시 강남구 강남구 개포로110길 15 101동 104호(일원동우성7차아파트)
아이맘어린이집,37.4807917,127.0904871,어린이집,서울특별시 강남구 금연환경 조성 및 간접흡연 피해방지 조례 제5조,100000,서울특별시 강남구 강남구 광평로34길 55 강남데시앙포레아파트 114동 103호
아이자람어린이집,37.4737864,127.1017461,어린이집,서울특별시 강남구 금연환경 조성 및 간접흡연 피해방지 조례 제5조,100000,서울특별시 강남구 강남구 자곡로 175 LH강남아이파크 704동 102호
에코비어린이집,,,어린이집,서울특별시 강남구 금연환경 조성 및 간접흡연 피해방지 조례 제5조,100000,서울특별시 강남구 강남구 자곡로 260 강남한양수자인아파트 409동 102호
우리어린이집,37.512439,127.065545,어린이집,서울특별시 강남구 금연환경 조성 및 간접흡연 피해방지 조례 제5조,100000,서울특별시 강남구 강남구 봉은사로114길 13 서울의료원 내
은마어린이집,37.4976559,127.0648797,어린이집,서울특별시 강남구 금연환경 조성 및 간접흡연 피해방지 조례 제5조,100000,서울특별시 강남구 강남구 삼성로 212 30동 114호(대치동 은마아파트)
자곡어린이집,37.4737864,127.1017461,어린이집,서울특별시 강남구 금연환경 조성 및 간접흡연 피해방지 조례 제5조,100000,서울특별시 강남구 강남구 자곡로 175 LH 강남아이파크
조이 빅스맘 어린이집,37.4736938,127.0509411,어린이집,서울특별시 강남구 금연환경 조성 및 간접흡연 피해방지 조례 제5조,100000,서울특별시 강남구 강남구 논현로6길 19
조이너스어린이집,37.4958223,127.0373824,어린이집,서울특별시 강남구 금연환경 조성 및 간접흡연 피해방지 조례 제5조,100000,서울특별시 강남구 강남구 역삼로19길 12 조이너스아파트 101호
토리에코비어린이집,37.4925325,127.0893074,어린이집,서울특별시 강남구 금연환경 조성 및 간접흡연 피해방지 조례 제5조,100000,서울특별시 강남구 강남구 양재대로55길 12 120동 101호(수서1단지아파트)
해나무어린이집,37.5172363,127.0473248,어린이집,서울특별시 강남구 금연환경 조성 및 간접흡연 피해방지 조례 제5조,100000,서울특별시 강남구 강남구 자곡로 21 209동 102호
한섬아이어린이집,37.5225486,127.0337921,어린이집,서울특별시 강남구 금연환경 조성 및 간접흡연 피해방지 조례 제5조,100000,서울특별시 강남구 신사동 631-2
한신 휴플러스 어린이집,37.4737808,127.1065697,어린이집,서울특별시 강남구 금연환경 조성 및 간접흡연 피해방지 조례 제5조,100000,서울특별시 강남구 밤고개로27길 20 관리동
행복누리 어린이집,37.4629102,127.1015167,어린이집,서울특별시 강남구 금연환경 조성 및 간접흡연 피해방지 조례 제5조,100000,서울특별시 강남구 헌릉로590길 63 세곡리엔파크 아파트 501동104호
힐스어린이집,37.4835321,127.1039802,어린이집,서울특별시 강남구 금연환경 조성 및 간접흡연 피해방지 조례 제5조,100000,서울특별시 강남구 자곡로3길 21 LHA5블럭
호야 어린이집,37.4602722,127.1013494,어린이집,서울특별시 강남구 금연환경 조성 및 간접흡연 피해방지 조례 제5조,100000,서울특별시 강남구 헌릉로590길 63 세곡리엔파크APT 306-102
명화어린이집,37.491035,127.1002787,어린이집,서울특별시 강남구 금연환경 조성 및 간접흡연 피해방지 조례 제5조,100000,서울특별시 강남구 광평로51길 49
민들레어린이집,37.4872625,127.1051693,어린이집,서울특별시 강남구 금연환경 조성 및 간접흡연 피해방지 조례 제5조,100000,서울특별시 강남구 광평로56길 11
삐아제어린이집,37.4869911,127.0984323,어린이집,서울특별시 강남구 금연환경 조성 및 간접흡연 피해방지 조례 제5조,100000,서울특별시 강남구 광평로47길 17 신동아APT7단지
수서서머힐어린이집,37.4887902,127.1035661,어린이집,서울특별시 강남구 금연환경 조성 및 간접흡연 피해방지 조례 제5조,100000,서울특별시 강남구 밤고개로1길 43 한아름APT내(內)
수서어린이집,37.4861348,127.0990541,어린이집,서울특별시 강남구 금연환경 조성 및 간접흡연 피해방지 조례 제5조,100000,서울특별시 강남구 광평로 242
아이꿈 어린이집,37.4890673,127.101008,어린이집,서울특별시 강남구 금연환경 조성 및 간접흡연 피해방지 조례 제5조,100000,서울특별시 강남구 광평로51길 27 404동 101호
예원어린이집,37.5199813,127.0254393,어린이집,서울특별시 강남구 금연환경 조성 및 간접흡연 피해방지 조례 제5조,100000,서울특별시 강남구 논현로151길 32-1
강남동산어린이집,37.479431,127.0502829,어린이집,서울특별시 강남구 금연환경 조성 및 간접흡연 피해방지 조례 제5조,100000,서울특별시 강남구 개포로 257
꼬꼬맘 어린이집,37.4740444,127.0530802,어린이집,서울특별시 강남구 금연환경 조성 및 간접흡연 피해방지 조례 제5조,100000,서울특별시 강남구 논현로4길 41
다솔어린이집,37.4785609,127.0542624,어린이집,서울특별시 강남구 금연환경 조성 및 간접흡연 피해방지 조례 제5조,100000,서울특별시 강남구 언주로 21
은성어린이집,37.4939654,127.0750977,어린이집,서울특���시 강남구 금연환경 조성 및 간접흡연 피해방지 조례 제5조,100000,서울특별시 강남구 개포로109길 5 216동 111호
인성어린이집,37.4939654,127.0750977,어린이집,서울특별시 강남구 금연환경 조성 및 간접흡연 피해방지 조례 제5조,100000,서울특별시 강남구 개포로109길 5 305동 102호
현이어린이집,37.492341,127.0781235,어린이집,서울특별시 강남구 금연환경 조성 및 간접흡연 피해방지 조례 제5조,100000,서울특별시 강남구 개포로110길 15 107동 104호
꼬마어린이집,37.5257121,127.0506784,어린이집,서울특별시 강남구 금연환경 조성 및 간접흡연 피해방지 조례 제5조,100000,서울특별시 강남구 도산대로89길 15
담희어린이집,37.5235476,127.0574077,어린이집,서울특별시 강남구 금연환경 조성 및 간접흡연 피해방지 조례 제5조,100000,서울특별시 강남구 영동대로138길 12
언북어린이집,37.5199257,127.0451,어린이집,서울특별시 강남구 금연환경 조성 및 간접흡연 피해방지 조례 제5조,100000,서울특별시 강남구 삼성로135길 42
언북몬테소리어린이집,37.5193219,127.0465433,어린이집,서울특별시 강남구 금연환경 조성 및 간접흡연 피해방지 조례 제5조,100000,서울특별시 강남구 학동로67길 15
준현어린이집,37.5225877,127.043359,어린이집,서울특별시 강남구 금연환경 조성 및 간접흡연 피해방지 조례 제5조,100000,서울특별시 강남구 선릉로148길 48-6
청담샛별,37.5250521,127.049284,어린이집,서울특별시 강남구 금연환경 조성 및 간접흡연 피해방지 조례 제5조,100000,서울특별시 강남구 압구정로79길 26 4층
청담아이나라어린이집,37.521466,127.0469425,어린이집,서울특별시 강남구 금연환경 조성 및 간접흡연 피해방지 조례 제5조,100000,서울특별시 강남구 삼성로147길 24 1층
청담어린이집,37.5220801,127.0400983,어린이집,서울특별시 강남구 금연환경 조성 및 간접흡연 피해방지 조례 제5조,100000,서울특별시 강남구 도산대로56길 14
청수어린이집,37.5250521,127.049284,어린이집,서울특별시 강남구 금연환경 조성 및 간접흡연 피해방지 조례 제5조,100000,서울특별시 강남구 압구정로79길 26
힐즈어린이집,37.473596,127.0953513,어린이집,서울특별시 강남구 금연환경 조성 및 간접흡연 피해방지 조례 제5조,100000,서울특별시 강남구 강남구 자곡로 101 래미안강남힐즈어린이집
엔씨소프트어린이집,37.5045703,127.0494465,어린이집,서울특별시 강남구 금연환경 조성 및 간접흡연 피해방지 조례 제5조,100000,서울특별시 강남구 테헤란로 509 NC soft R&D센터
초망몬테소리어린이집,37.5162234,127.0618652,어린이집,서울특별시 강남구 금연환경 조성 및 간접흡연 피해방지 조례 제5조,100000,서울특별시 강남구 봉은사로105길 24
한별어린이집,37.5117593,127.0554973,어린이집,서울특별시 강남구 금연환경 조성 및 간접흡연 피해방지 조례 제5조,100000,서울특별시 강남구 봉은사로82길 23
한전 빛사랑 어린이집,37.5121481,127.0609078,어린이집,서울특별시 강남구 금연환경 조성 및 간접흡연 피해방지 조례 제5조,100000,서울특별시 강남구 영동대로 512 별관 1층
강남구청 직장어린이집,37.5175282,127.0474699,어린이집,서울특별시 강남구 금연환경 조성 및 간접흡연 피해방지 조례 제5조,100000,서울특별시 강남구 학동로 426
포그니어린이집,37.5173694,127.0455489,어린이집,서울특별시 강남구 금연환경 조성 및 간접흡연 피해방지 조례 제5조,100000,서울특별시 강남구 학동로64길 7 102동107호
도토리소풍넥슨어린이집,37.5172363,127.0473248,어린이집,서울특별시 강남구 금연환경 조성 및 간접흡연 피해방지 조례 제5조,100000,서울특별시 강남구 은사로68길27
방주어린이집,37.5234015,127.0268361,어린이집,서울특별시 강남구 금연환경 조성 및 간접흡연 피해방지 조례 제5조,100000,서울특별시 강남구 신사동 567-17 1층
신사어린이집,37.5199636,127.0240594,어린이집,서울특별시 강남구 금연환경 조성 및 간접흡연 피해방지 조례 제5조,100000,서울특별시 강남구 도산대로15길 26
압구정아람어린이집,37.5293104,127.0355977,어린이집,서울특별시 강남구 금연환경 조성 및 간접흡연 피해방지 조례 제5조,100000,서울특별시 강남구 압구정로 311
바롬어린이집,37.5253051,127.0363519,어린이집,서울특별시 강남구 금연환경 조성 및 간접흡연 피해방지 조례 제5조,100000,서울특별시 강남구 언주로164길 36
압구정어린이집,37.5239227,127.0322517,어린이집,서울특별시 강남구 금연환경 조성 및 간접흡연 피해방지 조례 제5조,100000,서울특별시 강남구 언주로157길 8
압구정코코어린이집,37.5221773,127.029937,어린이집,서울특별시 강남구 금연환경 조성 및 간접흡연 피해방지 조례 제5조,100000,서울특별시 강남구 논현로158길 19
압구정키즈어린이집,37.5272331,127.0355566,어린이집,서울특별시 강남구 금연환경 조성 및 간접흡연 피해방지 조례 제5조,100000,서울특별시 강남구 압구정로42길 25-5
미래나무어린이집,37.5031679,127.03368,어린이집,서울특별시 강남구 금연환경 조성 및 간접흡연 피해방지 조례 제5조,100000,서울특별시 강남구 논현로99길 21
조이너스어린이집,37.4958223,127.0373824,어린이집,서울특별시 강남구 금연환경 조성 및 간접흡연 피해방지 조례 제5조,100000,서울특별시 강남구 역삼로19길12 조이너스APT101호
지예슬어린이집,37.5033259,127.0346009,어린이집,서울특별시 강남구 금연환경 조성 및 간접흡연 피해방지 조례 제5조,100000,서울특별시 강남구 테헤란로25길 43
튼튼영재어린이집,37.522332,127.0568223,어린이집,서울특별시 강남구 금연환경 조성 및 간접흡연 피해방지 조례 제5조,100000,서울특별시 강남구 학동로101길26 삼익상가 3층
가로수어린이집,37.5233379,127.0240519,어린이집,서울특별시 강남구 금연환경 조성 및 간접흡연 피해방지 조례 제5조,100000,서울특별시 강남구 압구정로18길 28 신구초등학교내
가온어린이집,37.4642163,127.1051545,어린이집,서울특별시 강남구 금연환경 조성 및 간접흡연 피해방지 조례 제5조,100000,서울특별시 강남구 헌릉로 618길 8 대왕초등학교내
선릉삼성어린이집,37.5066336,127.0511644,어린이집,서울특별시 강남구 금연환경 조성 및 간접흡연 피해방지 조례 제5조,100000,서울특별시 강남구 선릉로100길 48
성원몬테소리어린이집,37.5138262,127.0515472,어린이집,서울특별시 강남구 금연환경 조성 및 간접흡연 피해방지 조례 제5조,100000,서울특별시 강남구 삼성로111길 8 힐스테이트 2단지내(內)
아이린어린이집,37.5162276,127.0485407,어린이집,서울특별시 강남구 금연환경 조성 및 간접흡연 피해방지 조례 제5조,100000,서울특별시 강남구 학동로68길 29 115동 101호
아이큰숲어린이집,37.5132743,127.0448918,어린이집,서울특별시 강남구 금연환경 조성 및 간접흡연 피해방지 조례 제5조,100000,서울특별시 강남구 봉은사로59길 37 201호
에듀케어어린이집,37.5171888,127.0430478,어린이집,서울특별시 강남구 금연환경 조성 및 간접흡연 피해방지 조례 제5조,100000,서울특별시 강남구 선릉로130길 19 102동 108호
오르다어린이집,37.5127599,127.0504975,어린이집,서울특별시 강남구 금연환경 조성 및 간접흡연 피해방지 조례 제5조,100000,서울특별시 강남구 봉은사로73길 3-4
요요몬테소리어린이집,37.5162367,127.0484363,어린이집,서울특별시 강남구 금연환경 조성 및 간접흡연 피해방지 조례 제5조,100000,서울특별시 강남구 학동로68길 29 힐스테이트1단지 내(內)
은영어린이집,37.5114528,127.0515445,어린이집,서울특별시 강남구 금연환경 조성 및 간접흡연 피해방지 조례 제5조,100000,서울특별시 강남구 봉은사로74길 6-11
현대키즈어린이집,37.5162276,127.0485407,어린이집,서울특별시 강남구 금연환경 조성 및 간접흡연 피해방지 조례 제5조,100000,서울특별시 강남구 학동로68길 29 105동 103호
i구름빵어린이집,37.463919,127.101814,어린이집,서울특별시 강남구 금연환경 조성 및 간접흡연 피해방지 조례 제5조,100000,서울특별시 강남구 헌릉로570길 10 리엔파크2단지
그림마을 어린이집,37.4602722,127.1013494,어린이집,서울특별시 강남구 금연환경 조성 및 간접흡연 피해방지 조례 제5조,100000,서울특별시 강남구 헌릉로590길 63 세곡리엔파크 APT 512동 102호
강남사임당어린이집,37.4948024,127.0348746,어린이집,서울특별시 강남구 금연환경 조성 및 간접흡연 피해방지 조례 제5조,100000,서울특별시 강남구 역삼로11길 14
강남키즈랜드어린이집,37.4932575,127.0333791,어린이집,서울특별시 강남구 금연환경 조성 및 간접흡연 피해방지 조례 제5조,100000,서울특별시 강남구 역삼로8길 12
퍼스트클래스룸어린이집,37.5146969,127.0227423,어린이집,서울특별시 강남구 금연환경 조성 및 간접흡연 피해방지 조례 제5조,100000,서울특별시 강남구 강남대로146길 28
하늘하늘어린이집,37.5094841,127.0316837,어린이집,서울특별시 강남구 금연환경 조성 및 간접흡연 피해방지 조례 제5조,100000,서울특별시 강남구 봉은사로25길 37
수진영재어린이집,37.5107583,127.0384188,어린이집,서울특별시 강남구 금연환경 조성 및 간접흡연 피해방지 조례 제5조,100000,서울특별시 강남구 언주로114길 15-11
강남토토빌어린이집,37.4980164,127.0320218,어린이집,서울특별시 강남구 금연환경 조성 및 간접흡연 피해방지 조례 제5조,100000,서울특별시 강남구 역삼로14길 13 신도빌딩1층
역삼어린이집,37.4971055,127.0356468,어린이집,서울특별시 강남구 금연환경 조성 및 간접흡연 피해방지 조례 제5조,100000,서울특별시 강남구 테헤란로22길 46
우리누리 어린이집,37.4982503,127.0300905,어린이집,서울특별시 강남구 금연환경 조성 및 간접흡연 피해방지 조례 제5조,100000,서울특별시 강남구 테헤란로 114 국세종합상담센터
참사랑어린이집,37.5060175,127.0367175,어린이집,서울특별시 강남구 금연환경 조성 및 간접흡연 피해방지 조례 제5조,100000,서울특별시 강남구 언주로103길 40
충현어린이집,37.5049665,127.0375589,어린이집,서울특별시 강남구 금연환경 조성 및 간접흡연 피해방지 조례 제5조,100000,서울특별시 강남구 테헤란로27길 40
하늘숲어린이집,37.5058655,127.0398513,어린이집,서울특별시 강남구 금연환경 조성 및 간접흡연 피해방지 조례 제5조,100000,서울특별시 강남구 언주로99길 12
한국타이어동그라미어린이집,37.5018818,127.0317773,어린이집,서울특별시 강남구 금연환경 조성 및 간접흡연 피해방지 조례 제5조,100000,서울특별시 강남구 테헤란로13길 34
베베 키즈룸 어린이집,37.4951837,127.0472148,어린이집,서울특별시 강남구 금연환경 조성 및 간접흡연 피해방지 조례 제5조,100000,서울특별시 강남구 도곡로43길 21 레미안그레이튼APT내(內)
e-편한어린이집,37.4987189,127.0499436,어린이집,서울특별시 강남구 금연환경 조성 및 간접흡연 피해방지 조례 제5조,100000,서울특별시 강남구 선릉로69길 20
그레이튼어린이집,37.4964269,127.0482989,어린이집,서울특별시 강남구 금연환경 조성 및 간접흡연 피해방지 조례 제5조,100000,서울특별시 강남구 도곡로43길 20 관리동
리틀삼육어린이집,37.4972705,127.0502289,어린이집,서울특별시 강남구 금연환경 조성 및 간접흡연 피해방지 조례 제5조,100000,서울특별시 강남구 선릉로69길 19 108동102호
삼성SDS어린이집,37.5031271,127.0460758,어린이집,서울특별시 강남구 금연환경 조성 및 간접흡연 피해방지 조례 제5조,100000,서울특별시 강남구 테헤란로 318 일옥빌딩 3층
삼육어린이집,37.4987189,127.0499436,어린이집,서울특별시 강남구 금연환경 조성 및 간접흡연 피해방지 조례 제5조,100000,서울특별시 강남구 선릉로69길 20 105동 104호
아름어린이집,37.4944057,127.045606,어린이집,서울특별시 강남구 금연환경 조성 및 간접흡연 피해방지 조례 제5조,100000,서울특별시 강남구 도곡로39길 6
역삼가애어린이집,37.4948087,127.0447357,어린이집,서울특별시 강남구 금연환경 조성 및 간접흡연 피해방지 조례 제5조,100000,서울특별시 강남구 도곡로37길 15
대치도담어린이집,37.498989,127.054575,어린이집,서울특별시 강남구 금연환경 조성 및 간접흡연 피해방지 조례 제5조,100000,서울특별시 강남구 선릉로 64길 33 도곡초등학교내
동명어린이집,37.4767068,127.048453,어린이집,서울특별시 강남구 금연환경 조성 및 간접흡연 피해방지 조례 제5조,100000,서울특별시 강남구 개포로20길 34
또래어린이집,37.4816442,127.0526666,어린이집,서울특별시 강남구 금연환경 조성 및 간접흡연 피해방지 조례 제5조,100000,서울특별시 강남구 언주로 105
보배어린이집,37.4796855,127.045882,어린이집,서울특별시 강남구 금연환경 조성 및 간접흡연 피해방지 조례 제5조,100000,서울특별시 강남구 개포로22길 106 포이빌라 101호
GS리테일 푸르니 어린이집,37.5037519,127.037553,어린이집,서울특별시 강남구 금연환경 조성 및 간접흡연 피해방지 조례 제5조,100000,서울특별시 강남구 테헤란로27길 34-3
강남 힐스어린이집,37.5138262,127.0515472,어린이집,서울특별시 강남구 금연환경 조성 및 간접흡연 피해방지 조례 제5조,100000,서울특별시 강남구 삼성로111길 8 힐스테이트2단지 내
강남세브란스어린이집,37.4940737,127.0439885,어린이집,서울특별시 강남구 금연환경 조성 및 간접흡연 피해방지 조례 제5조,100000,서울특별시 강남구 언주로63길 29 명지빌딩 1층
구름빵어린이집,37.463919,127.101814,어린이집,서울특별시 강남구 금연환경 조성 및 간접흡연 피해방지 조례 제5조,100000,서울특별시 강남구 헌릉로590길 10 리엔파크2단지
느티나무 어린이집,37.4855371,127.0714351,어린이집,서울특별시 강남구 금연환경 조성 및 간접흡연 피해방지 조례 제5조,100000,서울특별시 강남구 삼성로 14
대치사랑어린이집,37.4976559,127.0648797,어린이집,서울특별시 강남구 금연환경 조성 및 간접흡연 피해방지 조례 제5조,100000,서울특별시 강남구 삼성로 212 은마아파트 15동 109호
대치아이리베슐레어린이집,37.4953504,127.0544641,어린이집,서울특별시 강남구 금연환경 조성 및 간접흡연 피해방지 조례 제5조,100000,서울특별시 강남구 선릉로 222 대치아이파크아파트 내 (대치동)
대치팰리스 어린이집,37.4942012,127.0584852,어린이집,서울특별시 강남구 금연환경 조성 및 간접흡연 피해방지 조례 제5조,100000,서울특별시 강남구 삼성로51길 37 1단지 관리동
대치팰리스꿈드림 어린이집,37.4942012,127.0584852,어린이집,서울특별시 강남구 금연환경 조성 및 간접흡연 피해방지 조례 제5조,100000,서울특별시 강남구 삼성로51길 35 2단지 관리동
도곡육아종합지원센터,37.4882371,127.0392707,어린이집,서울특별시 강남구 금연환경 조성 및 간접흡연 피해방지 조례 제5조,100000,서울특별시 강남구 도곡로18길 57
동원어린이집,37.4802458,127.0457273,어린이집,서울특별시 강남구 금연환경 조성 및 간접흡연 피해방지 조례 제5조,100000,서울특별시 강남구 개포로15길 29
역삼래미안어린이집,37.4972705,127.0502289,어린이집,서울특별시 강남구 금연환경 조성 및 간접흡연 피해방지 조례 제5조,100000,서울특별시 강남구 선릉로69길 19 래미안생활지원센타1층
아이뜰어린이집,37.4771644,127.0501171,어린이집,서울특별시 강남구 금연환경 조성 및 간접흡연 피해방지 조례 제5조,100000,서울특별시 강남구 개포로22길 39-11
아이신나어린이집,37.489628,127.0496869,어린이집,서울특별시 강남구 금연환경 조성 및 간접흡연 피해방지 조례 제5조,100000,서울특별시 강남구 언주로 3 5동 106호
예지어린이집,37.4788872,127.0553945,어린이집,서울특별시 강남구 금연환경 조성 및 간접흡연 피해방지 조례 제5조,100000,서울특별시 강남구 언주로 25
예향어린이집,37.4756728,127.0520896,어린이집,서울특별시 강남구 금연환경 조성 및 간접흡연 피해방지 조례 제5조,100000,서울특별시 강남구 개포로22길 87
주한울어린이집,37.4785609,127.0542624,어린이집,서울특별시 강남구 금연환경 조성 및 간접흡연 피해방지 조례 제5조,100000,서울특별시 강남구 언주로 21 30동 103호
짐랜드어린이집,37.4753909,127.0533402,어린이집,서울특별시 강남구 금연환경 조성 및 간접흡연 피해방지 조례 제5조,100000,서울특별시 강남구 개포로22길 100
클레 어린이집,37.4803146,127.048561,어린이집,서울특별시 강남구 금연환경 조성 및 간접흡연 피해방지 조례 제5조,100000,서울특별시 강남구 개포로31길 19-8
포이사임당어린이집,37.4746863,127.052937,어린이집,서울특별시 강남구 금연환경 조성 및 간접흡연 피해방지 조례 제5조,100000,서울특별시 강남구 논현로8길 52 서울빌딩 2층
해맑은어린이집,37.4785209,127.0512916,어린이집,서울특별시 강남구 금연환경 조성 및 간접흡연 피해방지 조례 제5조,100000,서울특별시 강남구 개포로36길 14
행복한아이들어린이집,37.4785609,127.0542624,어린이집,서울특별시 강남구 금연환경 조성 및 간접흡연 피해방지 조례 제5조,100000,서울특별시 강남구 언주로 21 24동 105호
보미나어린이집,37.5112405,127.0289689,어린이집,서울특별시 강남구 금연환경 조성 및 간접흡연 피해방지 조례 제5조,100000,서울특별시 강남구 학동로20길 25-9 .
논현어린이집,37.5070784,127.0294956,어린이집,서울특별시 강남구 금연환경 조성 및 간접흡연 피해방지 조례 제5조,100000,서울특별시 강남구 봉은사로13길 13
논현제일어린이집,37.5094029,127.031396,어린이집,서울특별시 강남구 금연환경 조성 및 간접흡연 피해방지 조례 제5조,100000,서울특별시 강남구 봉은사로25길 28 191
사과나무어린이집,37.5110672,127.0257633,어린이집,서울특별시 강남구 금연환경 조성 및 간접흡연 피해방지 조례 제5조,100000,서울특별시 강남구 학동로12길 16
성모어린이집,37.51098,127.0268707,어린이집,서울특별시 강남구 금연환경 조성 및 간접흡연 피해방지 조례 제5조,100000,서울특별시 강남구 강남대로124길 65
세아별어린이집,37.5034607,127.065435,어린이집,서울특별시 강남구 금연환경 조성 및 간접흡연 피해방지 조례 제5조,100000,서울특별시 강남구 영동대로 325 해암빌딩 2층
솔빛어린이집,37.5245727,127.0453677,어린이집,서울특별시 강남구 금연환경 조성 및 간접흡연 피해방지 조례 제5조,100000,서울특별시 강남구 압구정로80길 17 2층
숲속어린이집,37.5172363,127.0473248,어린이집,서울특별시 강남구 금연환경 조성 및 간접흡연 피해방지 조례 제5조,100000,서울특별시 강남구 자곡로 21 LH푸르지오아파트 211동 104호
아이앤어린이집,37.5099927,127.0518311,어린이집,서울특별시 강남구 금연환경 조성 및 간접흡연 피해방지 조례 제5조,100000,서울특별시 강남구 봉은사로68길 35-2
아이플러스 어린이집,37.4680562,127.1054415,어린이집,서울특별시 강남구 금연환경 조성 및 간접흡연 피해방지 조례 제5조,100000,서울특별시 강남구 밤고개로26길 50 강남한신휴플러스 아파트 6단지 내 관리동
아크로힐스 논현어린이집,37.5093526,127.0388621,어린이집,서울특별시 강남구 금연환경 조성 및 간접흡연 피해방지 조례 제5조,100000,서울특별시 강남구 언주로 604 1층(논현동)
리나어린이집,37.4709675,127.1039414,어린이집,서울특별시 강남구 금연환경 조성 및 간접흡연 피해방지 조례 제5조,100000,서울특별시 강남구 밤고개로 24길 66-18
리엔아이어린이집,37.4602722,127.1013494,어린이집,서울특별시 강남구 금연환경 조성 및 간접흡연 피해방지 조례 제5조,100000,서울특별시 강남구 헌릉로590길 63 세곡리엔파크APT 501동 101호
리엔어린이집,37.466266,127.1167873,어린이집,서울특별시 강남구 금연환경 조성 및 간접흡연 피해방지 조례 제5조,100000,서울특별시 강남구 헌릉로570길11 리엔파크303동1층
맘엔아이어린이집,37.4629102,127.1015167,어린이집,서울특별시 강남구 금연환경 조성 및 간접흡연 피해방지 조례 제5조,100000,서울특별시 강남구 헌릉로590길 63 세곡리엔파크 APT 206동104호
밀튼어린이집,37.4623275,127.1020437,어린이집,서울특별시 강남구 금연환경 조성 및 간접흡연 피해방지 조례 제5조,100000,서울특별시 강남구 헌릉로590길 88 세곡리엔파크 4단지내(內)
방죽어린이집,37.4698837,127.1045671,어린이집,서울특별시 강남구 금연환경 조성 및 간접흡연 피해방지 조례 제5조,100000,서울특별시 강남구 밤고개로 24길 75
브레인어린이집,37.4602722,127.1013494,어린이집,서울특별시 강남구 금연환경 조성 및 간접흡연 피해방지 조례 제5조,100000,서울특별시 강남구 헌릉로590길 63 세곡리엔파크APT 307동104호
사랑나무 어린이집,37.4629102,127.1015167,어린이집,서울특별시 강남구 금연환경 조성 및 간접흡연 피해방지 조례 제5조,100000,서울특별시 강남구 헌릉로590길 63 세곡리엔파크APT 503동 104호
역삼푸르지오어린이집,37.4968501,127.0461871,어린이집,서울특별시 강남구 금연환경 조성 및 간접흡연 피해방지 조례 제5조,100000,서울특별시 강남구 언주로 332 푸르지오APT내(內)
베베완사임당어린이집,37.4846721,127.0873935,어린이집,서울특별시 강남구 금연환경 조성 및 간접흡연 피해방지 조례 제5조,100000,서울특별시 강남구 광평로19길 10 1002동 111호
삼성서울병원어린이집,37.4855195,127.0880345,어린이집,서울특별시 강남구 금연환경 조성 및 간접흡연 피해방지 조례 제5조,100000,서울특별시 강남구 광평로31길 66
샛별 어린이집,37.4846721,127.0873935,어린이집,서울특별시 강남구 금연환경 조성 및 간접흡연 피해방지 조례 제5조,100000,서울특별시 강남구 광평로19길 10 1006동 103호
신우주어린이집,37.4841579,127.0823506,어린이집,서울특별시 강남구 금연환경 조성 및 간접흡연 피해방지 조례 제5조,100000,서울특별시 강남구 일원로 120 샘터마을단지내(內)
일원어린이집,37.4840536,127.0779528,어린이집,서울특별시 강남구 금연환경 조성 및 간접흡연 피해방지 조례 제5조,100000,서울특별시 강남구 광평로3길 21
태화기독교사회복지관초록교실어린이집?,37.4847491,127.0934205,어린이집,서울특별시 강남구 금연환경 조성 및 간접흡연 피해방지 조례 제5조,100000,서울특별시 강남구 광평로 185
태화어린이집,37.4847413,127.0934328,어린이집,서울특별시 강남구 금연환경 조성 및 간접흡연 피해방지 조례 제5조,100000,서울특별시 강남구 광평로 185태화기독교사회복지관내(內)
포도나무 어린이집,37.4849078,127.085378,어린이집,서울특별시 강남구 금연환경 조성 및 간접흡연 피해방지 조례 제5조,100000,서울특별시 강남구 광평로19길 15목련타운APT109동103호
프뢰벨어린이집,37.515875,127.035076,어린이집,서울특별시 강남구 금연환경 조성 및 간접흡연 피해방지 조례 제5조,100000,서울특별시 강남구 언주로 703 프뢰벨교육센터 3층
연화어린이집,37.5172158,127.0371731,어린이집,서울특별시 강남구 금연환경 조성 및 간접흡연 피해방지 조례 제5조,100000,서울특별시 강남구 학동로43길 17
예은몬테소리어린이집,37.5128026,127.042062,어린이집,서울특별시 강남구 금연환경 조성 및 간접흡연 피해방지 조례 제5조,100000,서울특별시 강남구 봉은사로51길 42
대치삼성어린이집,37.4965682,127.0588507,어린이집,서울특별시 강남구 금연환경 조성 및 간접흡연 피해방지 조례 제5조,100000,서울특별시 강남구 도곡로78길 22
대치아이트라움어린이집,37.4953504,127.0544641,어린이집,서울특별시 강남구 금연환경 조성 및 간접흡연 피해방지 조례 제5조,100000,서울특별시 강남구 선릉로 222 대치I Park APT내(內)
보람어린이집,37.4943479,127.0613269,어린이집,서울특별시 강남구 금연환경 조성 및 간접흡연 피해방지 조례 제5조,100000,서울특별시 강남구 남부순환로397길 19
예쁜어린이집,37.5043667,127.058608,어린이집,서울특별시 강남구 금연환경 조성 및 간접흡연 피해방지 조례 제5조,100000,서울특별시 강남구 삼성로76길 5-6
하은어린이집,37.5151298,127.0606594,어린이집,서울특별시 강남구 금연환경 조성 및 간접흡연 피해방지 조례 제5조,100000,서울특별시 강남구 영동대로 230 6동 102호
대치사임당어린이집,37.4976559,127.0648797,어린이집,서울특별시 강남구 금연환경 조성 및 간접흡연 피해방지 조례 제5조,100000,서울특별시 강남구 삼성로 212 은마APT 15 109호
구민회관어린이집,37.4938503,127.0642598,어린이집,서울특별시 강남구 금연환경 조성 및 간접흡연 피해방지 조례 제5조,100000,서울특별시 강남구 삼성로 154
아이꿈별 어린이집,37.4629102,127.1015167,어린이집,서울특별시 강남구 금연환경 조성 및 간접흡연 피해방지 조례 제5조,100000,서울특별시 강남구 헌릉로590길 63 세곡리엔파크APT 501동104호
예원몬테소리어린이집,37.4602722,127.1013494,어린이집,서울특별시 강남구 금연환경 조성 및 간접흡연 피해방지 조례 제5조,100000,서울특별시 강남구 헌릉로590길 63 세곡리엔파크APT 307동 102호
초록어린이집,37.466266,127.1167873,어린이집,서울특별시 강남구 금연환경 조성 및 간접흡연 피해방지 조례 제5조,100000,서울특별시 강남구 헌릉로570길 63 세곡5단지리엔파크 관리동
큰꿈 어린이집,37.4602722,127.1013494,어린이집,서울특별시 강남구 금연환경 조성 및 간접흡연 피해방지 조례 제5조,100000,서울특별시 강남구 헌릉로590길 63 세곡리엔파크APT 206동101호
키즈랜드어린이집,37.4632328,127.1032368,어린이집,서울특별시 강남구 금연환경 조성 및 간접흡연 피해방지 조례 제5조,100000,서울특별시 강남구 헌릉로590길 100 리엔파크 1단지내(內)
푸른어린이집?,37.4735319,127.0997899,어린이집,서울특별시 강남구 금연환경 조성 및 간접흡연 피해방지 조례 제5조,100000,서울특별시 강남구 밤고개로 20길 84
햇살가득어린이집,37.4602722,127.1013494,어린이집,서울특별시 강남구 금연환경 조성 및 간접흡연 피해방지 조례 제5조,100000,서울특별시 강남구 헌릉로590길 63세곡리엔파크APT 201동 104호
행복한 i세상어린이집,37.4602722,127.1013494,어린이집,서울특별시 강남구 금연환경 조성 및 간접흡연 피해방지 조례 제5조,100000,서울특별시 강남구 헌릉로590길 63 세곡리엔파크APT 201동101호
한솔어린이집,37.4818107,127.0777022,어린이집,서울특별시 강남구 금연환경 조성 및 간접흡연 피해방지 조례 제5조,100000,서울특별시 강남구 광평로10길 6 307동 101호
해피어린이집,37.4846579,127.0875723,어린이집,서울특별시 강남구 금연환경 조성 및 간접흡연 피해방지 조례 제5조,100000,서울특별시 강남구 광평로19길 10 까치마을APT관리동
현지아한솔어린이집,37.4818107,127.0777022,어린이집,서울특별시 강남구 금연환경 조성 및 간접흡연 피해방지 조례 제5조,100000,서울특별시 강남구 광평로10길 6
꿈별어린이집,37.492615,127.0902134,어린이집,서울특별시 강남구 금연환경 조성 및 간접흡연 피해방지 조례 제5조,100000,서울특별시 강남구 양재대로55길10 118동 106호
나하나어린이집?,37.4922459,127.0881366,어린이집,서울특별시 강남구 금연환경 조성 및 간접흡연 피해방지 조례 제5조,100000,서울특별시 강남구 양재대로 55길 6 상가동 304 305호
구립선재놀이방어린이집,37.4829571,127.0589875,어린이집,서울특별시 강남구 금연환경 조성 및 간접흡연 피해방지 조례 제5조,100000,서울특별시 강남구 개포로 310 92동 108호
아기둥지 어린이집,37.4804961,127.0583744,어린이집,서울특별시 강남구 금연환경 조성 및 간접흡연 피해방지 조례 제5조,100000,서울특별시 강남구 개포로 310 주공아파트 7동105호
강남리틀어린이집,37.5204839,127.0231268,어린이집,서울특별시 강남구 금연환경 조성 및 간접흡연 피해방지 조례 제5조,100000,서울특별시 강남구 선릉로 786동 103호
꼬마또래어린이집,37.4829571,127.0589875,어린이집,서울특별시 강남구 금연환경 조성 및 간접흡연 피해방지 조례 제5조,100000,서울특별시 강남구 개포로 310 72동 105호
꼬꼬마 어린이집,37.4974576,127.0653265,어린이집,서울특별시 강남구 금연환경 조성 및 간접흡연 피해방지 조례 제5조,100000,서울특별시 강남구 삼성로 212 17동 115호
대치어린이집,37.5018501,127.065542,어린이집,서울특별시 강남구 금연환경 조성 및 간접흡연 피해방지 조례 제5조,100000,서울특별시 강남구 영동대로65길 11
동화속 어린이집,37.4997456,127.0651317,어린이집,서울특별시 강남구 금연환경 조성 및 간접흡연 피해방지 조례 제5조,100000,서울특별시 강남구 영동대로57길 28 101동105호
은마어린이집?,37.4974576,127.0653265,어린이집,서울특별시 강남구 금연환경 조성 및 간접흡연 피해방지 조례 제5조,100000,서울특별시 강남구 삼성로 212 30동 114호
한티어린이집,37.4999216,127.0660433,어린이집,서울특별시 강남구 금연환경 조성 및 간접흡연 피해방지 조례 제5조,100000,서울특별시 강남구 영동대로57길 7 대치문화복지회관 3층
IBK 참 좋은 어린이집,37.4993953,127.0517005,어린이집,서울특별시 강남구 금연환경 조성 및 간접흡연 피해방지 조례 제5조,100000,서울특별시 강남구 선릉로 332
꿈땅어린이집,37.4990045,127.056578,어린이집,서울특별시 강남구 금연환경 조성 및 간접흡연 피해방지 조례 제5조,100000,서울특별시 강남구 도곡로73길 11 라이트빌1층
대치키즈어린이집,37.5008073,127.058353,어린이집,서울특별시 강남구 금연환경 조성 및 간접흡연 피해방지 조례 제5조,100000,서울특별시 강남구 삼성로67길 13
이화유치원,37.4907955,127.060047,유치원,서울특별시 강남구 금연환경 조성 및 간접흡연 피해방지 조례 제5조,100000,서울특별시 강남구 개포동 12 대치1차 APT내(內)
성요셉유치원,37.5268269,127.0482375,유치원,서울특별시 강남구 금연환경 조성 및 간접흡연 피해방지 조례 제5조,100000,서울특별시 강남구 청담동 117
오즈의마법사유치원,37.4639285,127.1060929,유치원,서울특별시 강남구 금연환경 조성 및 간접흡연 피해방지 조례 제5조,100000,서울특별시 강남구 세곡동 171번지
세명초등학교병설유치원,37.468414,127.0909827,유치원,서울특별시 강남구 금연환경 조성 및 간접흡연 피해방지 조례 제5조,100000,서울특별시 강남구 세곡동 464-9번지
대왕초등학교병설유치원,37.4641998,127.1056319,유치원,서울특별시 강남구 금연환경 조성 및 간접흡연 피해방지 조례 제5조,100000,서울특별시 강남구 헌릉로 618길 8번지
서울개원초등학교병설유치원,37.48163,127.0587418,유치원,서울특별시 강남구 금연환경 조성 및 간접흡연 피해방지 조례 제5조,100000,서울특별시 강남구 서울특별시 강남구 선릉로 29 (개포동 개원초등학교)
서울도곡초등학교병설유치원,37.498989,127.054575,유치원,서울특별시 강남구 금연환경 조성 및 간접흡연 피해방지 조례 제5조,100000,서울특별시 강남구 강남구 선릉로64길 33 (대치동 도곡초등학교)
서울신구초등학교병설유치원,37.5233379,127.0240519,유치원,서울특별시 강남구 금연환경 조성 및 간접흡연 피해방지 조례 제5조,100000,서울특별시 강남구 강남구 압구정로18길 28 (신사동 신구초등학교)
서울언주초등학교병설유치원,37.4866567,127.0371605,유치원,서울특별시 강남구 금연환경 조성 및 간접흡연 피해방지 조례 제5조,100000,서울특별시 강남구 강남구 남부순환로 363길 19 서울언주초등학교병설유치원
청담몬테소리유치원,37.5236245,127.0381038,유치원,서울특별시 강남구 금연환경 조성 및 간접흡연 피해방지 조례 제5조,100000,서울특별시 강남구 강남구 학동로67길 15 (청담동 장우빌딩)
경기유치원,37.4855871,127.0720756,유치원,서울특별시 강남구 금연환경 조성 및 간접흡연 피해방지 조례 제5조,100000,서울특별시 강남구 개포동 189-4
돌샘유치원,37.4883275,127.0715284,유치원,서울특별시 강남구 금연환경 조성 및 간접흡연 피해방지 조례 제5조,100000,서울특별시 강남구 개포동 185-1
개포초등학교병설유치원,37.4866274,127.0709874,유치원,서울특별시 강남구 금연환경 조성 및 간접흡연 피해방지 조례 제5조,100000,서울특별시 강남구 개포동 188
신양유치원,37.4834308,127.0616783,유치원,서울특별시 강남구 금연환경 조성 및 간접흡연 피해방지 조례 제5조,100000,서울특별시 강남구 개포2동 164-2
원일유치원,37.4812919,127.0649942,유치원,서울특별시 강남구 금연환경 조성 및 간접흡연 피해방지 조례 제5조,100000,서울특별시 강남구 개포동 140-1
일원유치원,37.4907489,127.0752448,유치원,서울특별시 강남구 금연환경 조성 및 간접흡연 피해방지 조례 제5조,100000,서울특별시 강남구 일원동 611-1
진성유치원,37.4835749,127.0678174,유치원,서울특별시 강남구 금연환경 조성 및 간접흡연 피해방지 조례 제5조,100000,서울특별시 강남구 개포2동138-1
초원유치원,37.4759833,127.0485775,유치원,서울특별시 강남구 금연환경 조성 및 간접흡연 피해방지 조례 제5조,100000,서울특별시 강남구 개포4동 1222-6
서울논현초등학교병설유치원,37.5081699,127.0260317,유치원,서울특별시 강남구 금연환경 조성 및 간접흡연 피해방지 조례 제5조,100000,서울특별시 강남구 논현1동 168
강남유치원,37.5154476,127.0390091,유치원,서울특별시 강남구 금연환경 조성 및 간접흡연 피해방지 조례 제5조,100000,서울특별시 강남구 논현동 243
성결유치원,37.5114206,127.0353325,유치원,서울특별시 강남구 금연환경 조성 및 간접흡연 피해방지 조례 제5조,100000,서울특별시 강남구 논현동 225-2
묘동유치원,37.497352,127.0587233,유치원,서울특별시 강남구 금연환경 조성 및 간접흡연 피해방지 조례 제5조,100000,서울특별시 강남구 대치동 1015-7
선경유치원,37.4922121,127.0627967,유치원,서울특별시 강남구 금연환경 조성 및 간접흡연 피해방지 조례 제5조,100000,서울특별시 강남구 대치1동 506 선경APT내(內)
서울대현초등학교병설유치원,37.5038985,127.0636435,유치원,서울특별시 강남구 금연환경 조성 및 간접흡연 피해방지 조례 제5조,100000,서울특별시 강남구 대치동 969
럭키유치원,37.4904143,127.0401859,유치원,서울특별시 강남구 금연환경 조성 및 간접흡연 피해방지 조례 제5조,100000,서울특별시 강남구 도곡1동 963
그림유치원,37.485163,127.0446324,유치원,서울특별시 강남구 금연환경 조성 및 간접흡연 피해방지 조례 제5조,100000,서울특별시 강남구 도곡2동 417-10
남부유치원,37.4868514,127.0487982,유치원,서울특별시 강남구 금연환경 조성 및 간접흡연 피해방지 조례 제5조,100000,서울특별시 강남구 도곡2동464번지한신APT내(內)
도곡렉슬유치원,37.4936848,127.0507447,유치원,서울특별시 강남구 금연환경 조성 및 간접흡연 피해방지 조례 제5조,100000,서울특별시 강남구 도곡동 527번지
영동제일유치원,37.5175282,127.0534156,유치원,서울특별시 강남구 금연환경 조성 및 간접흡연 피해방지 조례 제5조,100000,서울특별시 강남구 삼성동 63-10
반디유치원,37.4869911,127.0984323,유치원,서울특별시 강남구 금연환경 조성 및 간접흡연 피해방지 조례 제5조,100000,서울특별시 강남구 수서동 736 신동아APT내(內)
서울수서초등학교병설유치원,37.4909843,127.1015493,유치원,서울특별시 강남구 금연환경 조성 및 간접흡연 피해방지 조례 제5조,100000,서울특별시 강남구 수서동 709
소망유치원,37.4872625,127.1051693,유치원,서울특별시 강남구 금연환경 조성 및 간접흡연 피해방지 조례 제5조,100000,서울특별시 강남구 수서동 723
세리유치원,37.5207228,127.025976,유치원,서울특별시 강남구 금연환경 조성 및 간접흡연 피해방지 조례 제5조,100000,서울특별시 강남구 신사동 558-1
아란유치원,37.5276114,127.0298225,유치원,서울특별시 강남구 금연환경 조성 및 간접흡연 피해방지 조례 제5조,100000,서울특별시 강남구 압구정동 230-5
서울역삼초등학교병설유치원,37.492918,127.0328543,유치원,서울특별시 강남구 금연환경 조성 및 간접흡연 피해방지 조례 제5조,100000,서울특별시 강남구 강남대로 66길 21
청운교회부설유치원,37.494989,127.0455307,유치원,서울특별시 강남구 금연환경 조성 및 간접흡연 피해방지 조례 제5조,100000,서울특별시 강남구 역삼동 784-3호
리라유치원,37.4849458,127.0851548,유치원,서울특별시 강남구 금연환경 조성 및 간접흡연 피해방지 조례 제5조,100000,서울특별시 강남구 일원동 716
신우주유치원,37.4842931,127.082553,유치원,서울특별시 강남구 금연환경 조성 및 간접흡연 피해방지 조례 제5조,100000,서울특별시 강남구 일원동 718번지
푸른유치원,37.4837968,127.0808507,유치원,서울특별시 강남구 금연환경 조성 및 간접흡연 피해방지 조례 제5조,100000,서울특별시 강남구 일원본동719번지 푸른마을내(內)
하늘빛유치원,37.492615,127.0902134,유치원,서울특별시 강남구 금연환경 조성 및 간접흡연 피해방지 조례 제5조,100000,서울특별시 강남구 일원동 711
신아유치원,37.4922401,127.0784896,유치원,서울특별시 강남구 금연환경 조성 및 간접흡연 피해방지 조례 제5조,100000,서울특별시 강남구 일원동 615번지 우성7차APT내(內)
경원주유소,37.5232547,127.0427203,주유소,서울특별시 강남구 금연환경 조성 및 간접흡연 피해방지 조례 제5조,100000,서울특별시 강남구 청담동 3-6
매봉주유소,37.4948481,127.0458254,주유소,서울특별시 강남구 금연환경 조성 및 간접흡연 피해방지 조례 제5조,100000,서울특별시 강남구 역삼동 784-7
갤러리아주유소,37.5266815,127.0435149,주유소,서울특별시 강남구 금연환경 조성 및 간접흡연 피해방지 조례 제5조,100000,서울특별시 강남구 청담동 79-14
주성주유소,37.5219195,127.056737,주유소,서울특별시 강남구 금연환경 조성 및 간접흡연 피해방지 조례 제5조,100000,서울특별시 강남구 청담동 132-9
삼보주유소,37.5115134,127.0470928,주유소,서울특별시 강남구 금연환경 조성 및 간접흡연 피해방지 조례 제5조,100000,서울특별시 강남구 삼성동 38-21
GS칼텍스㈜강남그린점,37.5077842,127.0364686,주유소,서울특별시 강남구 금연환경 조성 및 간접흡연 피해방지 조례 제5조,100000,서울특별시 강남구 역삼동 652-2
힐탑주유소,37.5106991,127.0327199,주유소,서울특별시 강남구 금연환경 조성 및 간접흡연 피해방지 조례 제5조,100000,서울특별시 강남구 논현동 221-15
성원주유소,37.5050134,127.0253681,주유소,서울특별시 강남구 금연환경 조성 및 간접흡연 피해방지 조례 제5조,100000,서울특별시 강남구 논현동 201-14
대교주유소,37.5188781,127.0192986,주유소,서울특별시 강남구 금연환경 조성 및 간접흡연 피해방지 조례 제5조,100000,서울특별시 강남구 신사동 503-1
㈜새서울주유소카젠,37.5194704,127.0263136,주유소,서울특별시 강남구 금연환경 조성 및 간접흡연 피해방지 조례 제5조,100000,서울특별시 강남구 신사동 563-10
은마주유소,37.5000267,127.0671775,주유소,서울특별시 강남구 금연환경 조성 및 간접흡연 피해방지 조례 제5조,100000,서울특별시 강남구 대치동 994
스포월드주유소,37.5074425,127.039209,주유소,서울특별시 강남구 금연환경 조성 및 간접흡연 피해방지 조례 제5조,100000,서울특별시 강남구 역삼동 654-4
현대오일뱅크㈜직영산성주유소,37.4664775,127.1190391,주유소,서울특별시 강남구 금연환경 조성 및 간접흡연 피해방지 조례 제5조,100000,서울특별시 강남구 세곡동 20-8
한강에너지㈜강남제일주유소,37.4963518,127.039575,주유소,서울특별시 강남구 금연환경 조성 및 간접흡연 피해방지 조례 제5조,100000,서울특별시 강남구 역삼동 734-15
현대오일뱅크㈜직영 유진주유소,37.4833216,127.04278,주유소,서울특별시 강남구 금연환경 조성 및 간접흡연 피해방지 조례 제5조,100000,서울특별시 강남구 도곡동 515-2
오일프러스주유소,37.4856498,127.0398805,주유소,서울특별시 강남구 금연환경 조성 및 간접흡연 피해방지 조례 제5조,100000,서울특별시 강남구 도곡동 910-2
㈜잠실에너지 명품주유소,37.494102,127.045482,주유소,서울특별시 강남구 금연환경 조성 및 간접흡연 피해방지 조례 제5조,100000,서울특별시 강남구 역삼동 785-17
자곡주유소,37.4835321,127.1039802,주유소,서울특별시 강남구 금연환경 조성 및 간접흡연 피해방지 조례 제5조,100000,서울특별시 강남구 자곡동 210
㈜중앙에너비스 수서지점,37.4839933,127.0949776,주유소,서울특별시 강남구 금연환경 조성 및 간접흡연 피해방지 조례 제5조,100000,서울특별시 강남구 수서동 522-1
방죽주유소,37.4749397,127.1068516,주유소,서울특별시 강남구 금연환경 조성 및 간접흡연 피해방지 조례 제5조,100000,서울특별시 강남구 율현동 240
논현동주유소,37.5149314,127.0377149,주유소,서울특별시 강남구 금연환경 조성 및 간접흡연 피해방지 조례 제5조,100000,서울특별시 강남구 학동로 229 (논현동 89-11)
㈜소모석유쎈트럴주유소,37.4974054,127.0628251,주유소,서울특별시 강남구 금연환경 조성 및 간접흡연 피해방지 조례 제5조,100000,서울특별시 강남구 삼성로 335 (대치동 913-18
학여울주유소,37.4983776,127.0774759,주유소,서울특별시 강남구 금연환경 조성 및 간접흡연 피해방지 조례 제5조,100000,서울특별시 강남구 대치동 2-7
GS칼텍스㈜직영 삼성로점,37.5116802,127.053606,주유소,서울특별시 강남구 금연환경 조성 및 간접흡연 피해방지 조례 제5조,100000,서울특별시 강남구 삼성동 119-18
SK네트웍스㈜금성주유소,37.5098777,127.0651015,주유소,서울특별시 강남구 금연환경 조성 및 간접흡연 피해방지 조례 제5조,100000,서울특별시 강남구 삼성동 169-17
GS칼텍스(주)동호점,37.5184855,127.0646604,주유소,서울특별시 강남구 금연환경 조성 및 간접흡연 피해방지 조례 제5조,100000,서울특별시 강남구 삼성동 97-1
SK네트웍스㈜오천주유소,37.5134585,127.053786,주유소,서울특별시 강남구 금연환경 조성 및 간접흡연 피해방지 조례 제5조,100000,서울특별시 강남구 삼성동 71-9
새서울주유소,37.5257812,127.0265166,주유소,서울특별시 강남구 금연환경 조성 및 간접흡연 피해방지 조례 제5조,100000,서울특별시 강남구 신사동 575-1
진달래주유소,37.4922037,127.0419554,주유소,서울특별시 강남구 금연환경 조성 및 간접흡연 피해방지 조례 제5조,100000,서울특별시 강남구 도곡동 543-2
현대오일뱅크㈜직영한양주유소,37.5270213,127.0357939,주유소,서울특별시 강남구 금연환경 조성 및 간접흡연 피해방지 조례 제5조,100000,서울특별시 강남구 신사동 638 (압구정로 302)
개포주유소,37.4723322,127.0517033,주유소,서울특별시 강남구 금연환경 조성 및 간접흡연 피해방지 조례 제5조,100000,서울특별시 강남구 개포동 1164-2
남부주유소,37.4827505,127.0607732,주유소,서울특별시 강남구 금연환경 조성 및 간접흡연 피해방지 조례 제5조,100000,서울특별시 강남구 개포동 167-9
대치동주유소,37.4971084,127.0704075,주유소,서울특별시 강남구 금연환경 조성 및 간접흡연 피해방지 조례 제5조,100000,서울특별시 강남구 대치동 50-8
논현주유소,37.5184942,127.0282324,주유소,서울특별시 강남구 금연환경 조성 및 간접흡연 피해방지 조례 제5조,100000,서울특별시 강남구 논현동 8-11
GS칼텍스㈜역삼점,37.4983335,127.0386177,주유소,서울특별시 강남구 금연환경 조성 및 간접흡연 피해방지 조례 제5조,100000,서울특별시 강남구 역삼동 726-13
일원주유소,37.4910205,127.087806,주유소,서울특별시 강남구 금연환경 조성 및 간접흡연 피해방지 조례 제5조,100000,서울특별시 강남구 일원동 645-13
압구정주유소,37.5252957,127.033768,주유소,서울특별시 강남구 금연환경 조성 및 간접흡연 피해방지 조례 제5조,100000,서울특별시 강남구 신사동 633
뉴서울주유소,37.5176359,127.0357559,주유소,서울특별시 강남구 금연환경 조성 및 간접흡연 피해방지 조례 제5조,100000,서울특별시 강남구 논현동 106-4
SK네트웍스㈜동우주유소,37.5098229,127.0408435,주유소,서울특별시 강남구 금연환경 조성 및 간접흡연 피해방지 조례 제5조,100000,서울특별시 강남구 봉은사로 311
동성주유소,37.5156388,127.0599721,주유소,서울특별시 강남구 금연환경 조성 및 간접흡연 피해방지 조례 제5조,100000,서울특별시 강남구 삼성동 91-28.29
SK네트웍스㈜삼성주유소,37.5085074,127.0551651,주유소,서울특별시 강남구 금연환경 조성 및 간접흡연 피해방지 조례 제5조,100000,서울특별시 강남구 삼성동 128-17
GS칼텍스㈜지에스타워점,37.5026952,127.036474,주유소,서울특별시 강남구 금연환경 조성 및 간접흡연 피해방지 조례 제5조,100000,서울특별시 강남구 역삼동 668-13
제이에이치에너지(주)개나리주유소,37.5007619,127.0430652,주유소,서울특별시 강남구 금연환경 조성 및 간접흡연 피해방지 조례 제5조,100000,서울특별시 강남구 역삼동 721-20
서광주유소,37.4943462,127.0350659,주유소,서울특별시 강남구 금연환경 조성 및 간접흡연 피해방지 조례 제5조,100000,서울특별시 강남구 역삼동 834-47
대청주유소,37.494874,127.0842726,주유소,서울특별시 강남구 금연환경 조성 및 간접흡연 피해방지 조례 제5조,100000,서울특별시 강남구 일원동 624-8
㈜한진 도곡주유소,37.4910937,127.0377448,주유소,서울특별시 강남구 금연환경 조성 및 간접흡연 피해방지 조례 제5조,100000,서울특별시 강남구 도곡동 546-14
신사주유소,37.5176626,127.0241923,주유소,서울특별시 강남구 금연환경 조성 및 간접흡연 피해방지 조례 제5조,100000,서울특별시 강남구 논현동 5-6
오일시티주유소,37.4853766,127.0433067,주유소,서울특별시 강남구 금연환경 조성 및 간접흡연 피해방지 조례 제5조,100000,서울특별시 강남구 도곡동 411-8
SK네트윅스㈜세곡주유소,37.4672103,127.1187128,주유소,서울특별시 강남구 금연환경 조성 및 간접흡연 피해방지 조례 제5조,100000,서울특별시 강남구 세곡동 21-13
강남구청사 및 광장,37.5175282,127.0474699,지방자치단체청사,서울특별시 강남구 금연환경 조성 및 간접흡연 피해방지 조례 제5조,100000,서울특별시 강남구 삼성동 16-1
강남역(12번출구),37.497992,127.0279357,지하철 출입구,서울특별시 강남구 금연환경 조성 및 간접흡연 피해방지 조례 제5조,100000,서울특별시 강남구 강남대로 396
역삼역(1번출구),37.4981284,127.028303,지하철 출입구,서울특별시 강남구 금연환경 조성 및 간접흡연 피해방지 조례 제5조,100000,서울특별시 강남구 테헤란로 156
역삼역(2번출구),37.4981284,127.028303,지하철 출입구,서울특별시 강남구 금연환경 조성 및 간접흡연 피해방지 조례 제5조,100000,서울특별시 강남구 테헤란로 156
역삼역(3번출구),37.4981284,127.028303,지하철 출입구,서울특별시 강남구 금연환경 조성 및 간접흡연 피해방지 조례 제5조,100000,서울특별시 강남구 테헤란로 156
역삼역(4번출구),37.4981284,127.028303,지하철 출입구,서울특별시 강남구 금연환경 조성 및 간접흡연 피해방지 조례 제5조,100000,서울특별시 강남구 테헤란로 156
역삼역(5번출구),37.4981284,127.028303,지하철 출입구,서울특별시 강남구 금연환경 조성 및 간접흡연 피해방지 조례 제5조,100000,서울특별시 강남구 테헤란로 156
역삼역(6번출구),37.4981284,127.028303,지하철 출입구,서울특별시 강남구 금연환경 조성 및 간접흡연 피해방지 조례 제5조,100000,서울특별시 강남구 테헤란로 156
역삼역(7번출구),37.4981284,127.028303,지하철 출입구,서울특별시 강남구 금연환경 조성 및 간접흡연 피해방지 조례 제5조,100000,서울특별시 강남구 테헤란로 156
역삼역(8번출구),37.4981284,127.028303,지하철 출입구,서울특별시 강남구 금연환경 조성 및 간접흡연 피해방지 조례 제5조,100000,서울특별시 강남구 테헤란로 156
언주역,37.5074533,127.0342367,지하철역,서울특별시 강남구 금연환경 조성 및 간접흡연 피해방지 조례 제5조,100000,서울특별시 강남구 논현동 279-165
언주역,37.5074533,127.0342367,지하철역,서울특별시 강남구 금연환경 조성 및 간접흡연 피해방지 조례 제5조,100000,서울특별시 강남구 논현동 279-165
언주역,37.5074533,127.0342367,지하철역,서울특별시 강남구 금연환경 조성 및 간접흡연 피해방지 조례 제5조,100000,서울특별시 강남구 논현동 279-165
일원역,37.4839534,127.0844127,지하철역,서울특별시 강남구 금연환경 조성 및 간접흡연 피해방지 조례 제5조,100000,서울특별시 강남구 일원동 717
매봉역,37.4869406,127.0466214,지하철역,서울특별시 강남구 금연환경 조성 및 간접흡연 피해방지 조례 제5조,100000,서울특별시 강남구 도곡동 179-2
매봉역,37.4869406,127.0466214,지하철역,서울특별시 강남구 금연환경 조성 및 간접흡연 피해방지 조례 제5조,100000,서울특별시 강남구 도곡동 179-2
매봉역,37.4869406,127.0466214,지하철역,서울특별시 강남구 금연환경 조성 및 간접흡연 피해방지 조례 제5조,100000,서울특별시 강남구 도곡동 179-2
매봉역,37.4869406,127.0466214,지하철역,서울특별시 강남구 금연환경 조성 및 간접흡연 피해방지 조례 제5조,100000,서울특별시 강남구 도곡동 179-2
일원역,37.4839534,127.0844127,지하철역,서울특별시 강남구 금연환경 조성 및 간접흡연 피해방지 조례 제5조,100000,서울특별시 강남구 일원동 717
일원역,37.4839534,127.0844127,지하철역,서울특별시 강남구 금연환경 조성 및 간접흡연 피해방지 조례 제5조,100000,서울특별시 강남구 일원동 717
일원역,37.4839534,127.0844127,지하철역,서울특별시 강남구 금연환경 조성 및 간접흡연 피해방지 조례 제5조,100000,서울특별시 강남구 일원동 717
일원역,37.4839534,127.0844127,지하철역,서울특별시 강남구 금연환경 조성 및 간접흡연 피해방지 조례 제5조,100000,서울특별시 강남구 일원동 717
일원역,37.4839534,127.0844127,지하철역,서울특별시 강남구 금연환경 조성 및 간접흡연 피해방지 조례 제5조,100000,서울특별시 강남구 일원동 717
일원역,37.4839534,127.0844127,지하철역,서울특별시 강남구 금연환경 조성 및 간접흡연 피해방지 조례 제5조,100000,서울특별시 강남구 일원동 717
청담역,37.5191066,127.0520336,지하철역,서울특별시 강남구 금연환경 조성 및 간접흡연 피해방지 조례 제5조,100000,서울특별시 강남구 청담동 77-76
청담역,37.5191066,127.0520336,지하철역,서울특별시 강남구 금연환경 조성 및 간접흡연 피해방지 조례 제5조,100000,서울특별시 강남구 청담동 77-76
청담역,37.5191066,127.0520336,지하철역,서울특별시 강남구 금연환경 조성 및 간접흡연 피해방지 조례 제5조,100000,서울특별시 강남구 청담동 77-76
청담역,37.5191066,127.0520336,지하철역,서울특별시 강남구 금연환경 조성 및 간접흡연 피해방지 조례 제5조,100000,서울특별시 강남구 청담동 77-76
청담역,37.5191066,127.0520336,지하철역,서울특별시 강남구 금연환경 조성 및 간접흡연 피해방지 조례 제5조,100000,서울특별시 강남구 청담동 77-76
청담역,37.5191066,127.0520336,지하철역,서울특별시 강남구 금연환경 조성 및 간접흡연 피해방지 조례 제5조,100000,서울특별시 강남구 청담동 77-76
청담역,37.5191066,127.0520336,지하철역,서울특별시 강남구 금연환경 조성 및 간접흡연 피해방지 조례 제5조,100000,서울특별시 강남구 청담동 77-76
청담역,37.5191066,127.0520336,지하철역,서울특별시 강남구 금연환경 조성 및 간접흡연 피해방지 조례 제5조,100000,서울특별시 강남구 청담동 77-76
청담역,37.5191066,127.0520336,지하철역,서울특별시 강남구 금연환경 조성 및 간접흡연 피해방지 조례 제5조,100000,서울특별시 강남구 청담동 77-76
봉은사역,37.5147292,127.0632028,지하철역,서울특별시 강남구 금연환경 조성 및 간접흡연 피해방지 조례 제5조,100000,서울특별시 강남구 삼성동 172
봉은사역,37.5147292,127.0632028,지하철역,서울특별시 강남구 금연환경 조성 및 간접흡연 피해방지 조례 제5조,100000,서울특별시 강남구 삼성동 172
봉은사역,37.5147292,127.0632028,지하철역,서울특별시 강남구 금연환경 조성 및 간접흡연 피해방지 조례 제5조,100000,서울특별시 강남구 삼성동 172
봉은사역,37.5147292,127.0632028,지하철역,서울특별시 강남구 금연환경 조성 및 간접흡연 피해방지 조례 제5조,100000,서울특별시 강남구 삼성동 172
봉은사역,37.5147292,127.0632028,지하철역,서울특별시 강남구 금연환경 조성 및 간접흡연 피해방지 조례 제5조,100000,서울특별시 강남구 삼성동 172
봉은사역,37.5147292,127.0632028,지하철역,서울특별시 강남구 금연환경 조성 및 간접흡연 피해방지 조례 제5조,100000,서울특별시 강남구 삼성동 172
봉은사역,37.5147292,127.0632028,지하철역,서울특별시 강남구 금연환경 조성 및 간접흡연 피해방지 조례 제5조,100000,서울특별시 강남구 삼성동 172
삼성역,37.5088263,127.0630673,지하철역,서울특별시 강남구 금연환경 조성 및 간접흡연 피해방지 조례 제5조,100000,서울특별시 강남구 삼성동 172-66
삼성역,37.5088263,127.0630673,지하철역,서울특별시 강남구 금연환경 조성 및 간접흡연 피해방지 조례 제5조,100000,서울특별시 강남구 삼성동 172-66
삼성역,37.5088263,127.0630673,지하철역,서울특별시 강남구 금연환경 조성 및 간접흡연 피해방지 조례 제5조,100000,서울특별시 강남구 삼성동 172-66
삼성역,37.5088263,127.0630673,지하철역,서울특별시 강남구 금연환경 조성 및 간접흡연 피해방지 조례 제5조,100000,서울특별시 강남구 삼성동 172-66
삼성역,37.5088263,127.0630673,지하철역,서울특별시 강남구 금연환경 조성 및 간접흡연 피해방지 조례 제5조,100000,서울특별시 강남구 삼성동 172-66
삼성역,37.5088263,127.0630673,지하철역,서울특별시 강남구 금연환경 조성 및 간접흡연 피해방지 조례 제5조,100000,서울특별시 강남구 삼성동 172-66
삼성역,37.5088263,127.0630673,지하철역,서울특별시 강남구 금연환경 조성 및 간접흡연 피해방지 조례 제5조,100000,서울특별시 강남구 삼성동 172-66
삼성역,37.5088263,127.0630673,지하철역,서울특별시 강남구 금연환경 조성 및 간접흡연 피해방지 조례 제5조,100000,서울특별시 강남구 삼성동 172-66
청담역,37.5191066,127.0520336,지하철역,서울특별시 강남구 금연환경 조성 및 간접흡연 피해방지 조례 제5조,100000,서울특별시 강남구 청담동 77-76
청담역,37.5191066,127.0520336,지하철역,서울특별시 강남구 금연환경 조성 및 간접흡연 피해방지 조례 제5조,100000,서울특별시 강남구 청담동 77-76
청담역,37.5191066,127.0520336,지하철역,서울특별시 강남구 금연환경 조성 및 간접흡연 피해방지 조례 제5조,100000,서울특별시 강남구 청담동 77-76
청담역,37.5191066,127.0520336,지하철역,서울특별시 강남구 금연환경 조성 및 간접흡연 피해방지 조례 제5조,100000,서울특별시 강남구 청담동 77-76
청담역,37.5191066,127.0520336,지하철역,서울특별시 강남구 금연환경 조성 및 간접흡연 피해방지 조례 제5조,100000,서울특별시 강남구 청담동 77-76
학동역,37.5111584,127.0216392,지하철역,서울특별시 강남구 금연환경 조성 및 간접흡연 피해방지 조례 제5조,100000,서울특별시 강남구 논현동 279-67
학동역,37.5111584,127.0216392,지하철역,서울특별시 강남구 금연환경 조성 및 간접흡연 피해방지 조례 제5조,100000,서울특별시 강남구 논현동 279-67
학동역,37.5111584,127.0216392,지하철역,서울특별시 강남구 금연환경 조성 및 간접흡연 피해방지 조례 제5조,100000,서울특별시 강남구 논현동 279-67
학동역,37.5111584,127.0216392,지하철역,서울특별시 강남구 금연환경 조성 및 간접흡연 피해방지 조례 제5조,100000,서울특별시 강남구 논현동 279-67
삼성중앙역,37.511617,127.0485529,지하철역,서울특별시 강남구 금연환경 조성 및 간접흡연 피해방지 조례 제5조,100000,서울특별시 강남구 삼성동 111-147
삼성중앙역,37.511617,127.0485529,지하철역,서울특별시 강남구 금연환경 조성 및 간접흡연 피해방지 조례 제5조,100000,서울특별시 강남구 삼성동 111-147
삼성중앙역,37.511617,127.0485529,지하철역,서울특별시 강남구 금연환경 조성 및 간접흡연 피해방지 조례 제5조,100000,서울특별시 강남구 삼성동 111-147
삼성중앙역,37.511617,127.0485529,지하철역,서울특별시 강남구 금연환경 조성 및 간접흡연 피해방지 조례 제5조,100000,서울특별시 강남구 삼성동 111-147
삼성중앙역,37.511617,127.0485529,지하철역,서울특별시 강남구 금연환경 조성 및 간접흡연 피해방지 조례 제5조,100000,서울특별시 강남구 삼성동 111-147
삼성중앙역,37.511617,127.0485529,지하철역,서울특별시 강남구 금연환경 조성 및 간접흡연 피해방지 조례 제5조,100000,서울특별시 강남구 삼성동 111-147
삼성중앙역,37.511617,127.0485529,지하철역,서울특별시 강남구 금연환경 조성 및 간접흡연 피해방지 조례 제5조,100000,서울특별시 강남구 삼성동 111-147
학동역,37.5111584,127.0216392,지하철역,서울특별시 강남구 금연환경 조성 및 간접흡연 피해방지 조례 제5조,100000,서울특별시 강남구 논현동 279-67
학동역,37.5111584,127.0216392,지하철역,서울특별시 강남구 금연환경 조성 및 간접흡연 피해방지 조례 제5조,100000,서울특별시 강남구 논현동 279-67
학동역,37.5111584,127.0216392,지하철역,서울특별시 강남구 금연환경 조성 및 간접흡연 피해방지 조례 제5조,100000,서울특별시 강남구 논현동 279-67
학동역,37.5111584,127.0216392,지하철역,서울특별시 강남구 금연환경 조성 및 간접흡연 피해방지 조례 제5조,100000,서울특별시 강남구 논현동 279-67
학동역,37.5111584,127.0216392,지하철역,서울특별시 강남구 금연환경 조성 및 간접흡연 피해방지 조례 제5조,100000,서울특별시 강남구 논현동 279-67
학동역,37.5111584,127.0216392,지하철역,서울특별시 강남구 금연환경 조성 및 간접흡연 피해방지 조례 제5조,100000,서울특별시 강남구 논현동 279-67
학여울역,37.4966789,127.0717054,지하���역,서울특별시 강남구 금연환경 조성 및 간접흡연 피해방지 조례 제5조,100000,서울특별시 강남구 대치동 514-3
한티역,37.4962068,127.0528705,지하철역,서울특별시 강남구 금연환경 조성 및 간접흡연 피해방지 조례 제5조,100000,서울특별시 강남구 대치동 1011-28
한티역,37.4962068,127.0528705,지하철역,서울특별시 강남구 금연환경 조성 및 간접흡연 피해방지 조례 제5조,100000,서울특별시 강남구 대치동 1011-28
한티역,37.4962068,127.0528705,지하철역,서울특별시 강남구 금연환경 조성 및 간접흡연 피해방지 조례 제5조,100000,서울특별시 강남구 대치동 1011-28
강남역,37.4970172,127.0281681,지하철역,서울특별시 강남구 금연환경 조성 및 간접흡연 피해방지 조례 제5조,100000,서울특별시 강남구 역삼동 858
강남역,37.4970172,127.0281681,지하철역,서울특별시 강남구 금연환경 조성 및 간접흡연 피해방지 조례 제5조,100000,서울특별시 강남구 역삼동 858
강남역,37.4970172,127.0281681,지하철역,서울특별시 강남구 금연환경 조성 및 간접흡연 피해방지 조례 제5조,100000,서울특별시 강남구 역삼동 858
강남역,37.4970172,127.0281681,지하철역,서울특별시 강남구 금연환경 조성 및 간접흡연 피해방지 조례 제5조,100000,서울특별시 강남구 역삼동 858
선릉역,37.5088263,127.0630673,지하철역,서울특별시 강남구 금연환경 조성 및 간접흡연 피해방지 조례 제5조,100000,서울특별시 강남구 삼성동 172-66
선릉역,37.5088263,127.0630673,지하철역,서울특별시 강남구 금연환경 조성 및 간접흡연 피해방지 조례 제5조,100000,서울특별시 강남구 삼성동 172-66
선릉역,37.5088263,127.0630673,지하철역,서울특별시 강남구 금연환경 조성 및 간접흡연 피해방지 조례 제5조,100000,서울특별시 강남구 삼성동 172-66
선릉역,37.5088263,127.0630673,지하철역,서울특별시 강남구 금연환경 조성 및 간접흡연 피해방지 조례 제5조,100000,서울특별시 강남구 삼성동 172-66
선릉역,37.5088263,127.0630673,지하철역,서울특별시 강남구 금연환경 조성 및 간접흡연 피해방지 조례 제5조,100000,서울특별시 강남구 삼성동 172-66
선릉역,37.5088263,127.0630673,지하철역,서울특별시 강남구 금연환경 조성 및 간접흡연 피해방지 조례 제5조,100000,서울특별시 강남구 삼성동 172-66
선릉역,37.5088263,127.0630673,지하철역,서울특별시 강남구 금연환경 조성 및 간접흡연 피해방지 조례 제5조,100000,서울특별시 강남구 삼성동 172-66
선릉역,37.5088263,127.0630673,지하철역,서울특별시 강남구 금연환경 조성 및 간접흡연 피해방지 조례 제5조,100000,서울특별시 강남구 삼성동 172-66
선릉역,37.5088263,127.0630673,지하철역,서울특별시 강남구 금연환경 조성 및 간접흡연 피해방지 조례 제5조,100000,서울특별시 강남구 삼성동 172-66
선릉역,37.5088263,127.0630673,지하철역,서울특별시 강남구 금연환경 조성 및 간접흡연 피해방지 조례 제5조,100000,서울특별시 강남구 삼성동 172-66
선정릉역,37.5108416,127.0436876,지하철역,서울특별시 강남구 금연환경 조성 및 간접흡연 피해방지 조례 제5조,100000,서울특별시 강남구 삼성동 111-114
선정릉역,37.5108416,127.0436876,지하철역,서울특별시 강남구 금연환경 조성 및 간접흡연 피해방지 조례 제5조,100000,서울특별시 강남구 삼성동 111-114
강남역,37.4970172,127.0281681,지하철역,서울특별시 강남구 금연환경 조성 및 간접흡연 피해방지 조례 제5조,100000,서울특별시 강남구 역삼동 858
강남구청역,37.517161,127.041288,지하철역,서울특별시 강남구 금연환경 조성 및 간접흡연 피해방지 조례 제5조,100000,서울특별시 강남구 삼성동 111-44
강남구청역,37.517161,127.041288,지하철역,서울특별시 강남구 금연환경 조성 및 간접흡연 피해방지 조례 제5조,100000,서울특별시 강남구 삼성동 111-44
강남구청역,37.517161,127.041288,지하철역,서울특별시 강남구 금연환경 조성 및 간접흡연 피해방지 조례 제5조,100000,서울특별시 강남구 삼성동 111-44
강남구청역,37.517161,127.041288,지하철역,서울특별시 강남구 금연환경 조성 및 간접흡연 피해방지 조례 제5조,100000,서울특별시 강남구 삼성동 111-44
개포동역,37.4892333,127.0665315,지하철역,서울특별시 강남구 금연환경 조성 및 간접흡연 피해방지 조례 제5조,100000,서울특별시 강남구 개포동 195
개포동역,37.4892333,127.0665315,지하철역,서울특별시 강남구 금연환경 조성 및 간접흡연 피해방지 조례 제5조,100000,서울특별시 강남구 개포동 195
개포동역,37.4892333,127.0665315,지하철역,서울특별시 강남구 금연환경 조성 및 간접흡연 피해방지 조례 제5조,100000,서울특별시 강남구 개포동 195
개포동역,37.4892333,127.0665315,지하철역,서울특별시 강남구 금연환경 조성 및 간접흡연 피해방지 조례 제5조,100000,서울특별시 강남구 개포동 195
개포동역,37.4892333,127.0665315,지하철역,서울특별시 강남구 금연환경 조성 및 간접흡연 피해방지 조례 제5조,100000,서울특별시 강남구 개포동 195
개포동역,37.4892333,127.0665315,지하철역,서울특별시 강남구 금연환경 조성 및 간접흡연 피해방지 조례 제5조,100000,서울특별시 강남구 개포동 195
개포동역,37.4892333,127.0665315,지하철역,서울특별시 강남구 금연환경 조성 및 간접흡연 피해방지 조례 제5조,100000,서울특별시 강남구 개포동 195
한티역,37.4962068,127.0528705,지하철역,서울특별시 강남구 금연환경 조성 및 간접흡연 피해방지 조례 제5조,100000,서울특별시 강남구 대치동 1011-28
한티역,37.4962068,127.0528705,지하철역,서울특별시 강남구 금연환경 조성 및 간접흡연 피해방지 조례 제5조,100000,서울특별시 강남구 대치동 1011-28
한티역,37.4962068,127.0528705,지하철역,서울특별시 강남구 금연환경 조성 및 간접흡연 피해방지 조례 제5조,100000,서울특별시 강남구 대치동 1011-28
한티역,37.4962068,127.0528705,지하철역,서울특별시 강남구 금연환경 조성 및 간접흡연 피해방지 조례 제5조,100000,서울특별시 강남구 대치동 1011-28
한티역,37.4962068,127.0528705,지하철역,서울특별시 강남구 금연환경 조성 및 간접흡연 피해방지 조례 제5조,100000,서울특별시 강남구 대치동 1011-28
선정릉역,37.5108416,127.0436876,지하철역,서울특별시 강남구 금연환경 조성 및 간접흡연 피해방지 조례 제5조,100000,서울특별시 강남구 삼성동 111-114
선정릉역,37.5108416,127.0436876,지하철역,서울특별시 강남구 금연환경 조성 및 간접흡연 피해방지 조례 제5조,100000,서울특별시 강남구 삼성동 111-114
수서역,37.4873499,127.1018416,지하철역,서울특별시 강남구 금연환경 조성 및 간접흡연 피해방지 조례 제5조,100000,서울특별시 강남구 수서동 728
수서역,37.4873499,127.1018416,지하철역,서울특별시 강남구 금연환경 조성 및 간접흡연 피해방지 조례 제5조,100000,서울특별시 강남구 수서동 728
수서역,37.4873499,127.1018416,지하철역,서울특별시 강남구 금연환경 조성 및 간접흡연 피해방지 조례 제5조,100000,서울특별시 강남구 수서동 728
수서역,37.4873499,127.1018416,지하철역,서울특별시 강남구 금연환경 조성 및 간접흡연 피해방지 조례 제5조,100000,서울특별시 강남구 수서동 728
수서역,37.4873499,127.1018416,지하철역,서울특별시 강남구 금연환경 조성 및 간접흡연 피해방지 조례 제5조,100000,서울특별시 강남구 수서동 728
수서역,37.4873499,127.1018416,지하철역,서울특별시 강남구 금연환경 조성 및 간접흡연 피해방지 조례 제5조,100000,서울특별시 강남구 수서동 728
수서역,37.4873499,127.1018416,지하철역,서울특별시 강남구 금연환경 조성 및 간접흡연 피해방지 조례 제5조,100000,서울특별시 강남구 수서동 728
개포동역,37.4892333,127.0665315,지하철역,서울특별시 강남구 금연환경 조성 및 간접흡연 피해방지 조례 제5조,100000,서울특별시 강남구 개포동 195
구룡역,37.4870256,127.0592486,지하철역,서울특별시 강남구 금연환경 조성 및 간접흡연 피해방지 조례 제5조,100000,서울특별시 강남구 개포동 175-3
구룡역,37.4870256,127.0592486,지하철역,서울특별시 강남구 금연환경 조성 및 간접흡연 피해방지 조례 제5조,100000,서울특별시 강남구 개포동 175-3
구룡역,37.4870256,127.0592486,지하철역,서울특별시 강남구 금연환경 조성 및 간접흡연 피해방지 조례 제5조,100000,서울특별시 강남구 개포동 175-3
구룡역,37.4870256,127.0592486,지하철역,서울특별시 강남구 금연환경 조성 및 간접흡연 피해방지 조례 제5조,100000,서울특별시 강남구 개포동 175-3
구룡역,37.4870256,127.0592486,지하철역,서울특별시 강남구 금연환경 조성 및 간접흡연 피해방지 조례 제5조,100000,서울특별시 강남구 개포동 175-3
논현역,37.5103093,127.0218222,지하철역,서울특별시 강남구 금연환경 조성 및 간접흡연 피해방지 조례 제5조,100000,서울특별시 강남구 논현동 280
논현역,37.5103093,127.0218222,지하철역,서울특별시 강남구 금연환경 조성 및 간접흡연 피해방지 조례 제5조,100000,서울특별시 강남구 논현동 280
논현역,37.5103093,127.0218222,지하철역,서울특별시 강남구 금연환경 조성 및 간접흡연 피해방지 조례 제5조,100000,서울특별시 강남구 논현동 280
논현역,37.5103093,127.0218222,지하철역,서울특별시 강남구 금연환경 조성 및 간접흡연 피해방지 조례 제5조,100000,서울특별시 강남구 논현동 280
대모산입구역,37.4911324,127.0728947,지하철역,서울특별시 강남구 금연환경 조성 및 간접흡연 피해방지 조례 제5조,100000,서울특별시 강남구 일원동 700
대모산입구역,37.4911324,127.0728947,지하철역,서울특별시 강남구 금연환경 조성 및 간접흡연 피해방지 조례 제5조,100000,서울특별시 강남구 일원동 700
신논현역,37.5045961,127.0250184,지하철역,서울특별시 강남구 금연환경 조성 및 간접흡연 피해방지 조례 제5조,100000,서울특별시 강남구 역삼동 800
신논현역,37.5045961,127.0250184,지하철역,서울특별시 강남구 금연환경 조성 및 간접흡연 피해방지 조례 제5조,100000,서울특별시 강남구 역삼동 800
신논현역,37.5045961,127.0250184,지하철역,서울특별시 강남구 금연환경 조성 및 간접흡연 피해방지 조례 제5조,100000,서울특별시 강남구 역삼동 800
신사역,37.5163915,127.0203073,지하철역,서울특별시 강남구 금연환경 조성 및 간접흡연 피해방지 조례 제5조,100000,서울특별시 강남구 신사동 667
신사역,37.5163915,127.0203073,지하철역,서울특별시 강남구 금연환경 조성 및 간접흡연 피해방지 조례 제5조,100000,서울특별시 강남구 신사동 667
신사역,37.5163915,127.0203073,지하철역,서울특별시 강남구 금연환경 조성 및 간접흡연 피해방지 조례 제5조,100000,서울특별시 강남구 신사동 667
신사역,37.5163915,127.0203073,지하철역,서울특별시 강남구 금연환경 조성 및 간접흡연 피해방지 조례 제5조,100000,서울특별시 강남구 신사동 667
신사역,37.5163915,127.0203073,지하철역,서울특별시 강남구 금연환경 조성 및 간접흡연 피해방지 조례 제5조,100000,서울특별시 강남구 신사동 667
신사역,37.5163915,127.0203073,지하철역,서울특별시 강남구 금연환경 조성 및 간접흡연 피해방지 조례 제5조,100000,서울특별시 강남구 신사동 667
압구정역,37.5235264,127.0283255,지하철역,서울특별시 강남구 금연환경 조성 및 간접흡연 피해방지 조례 제5조,100000,서울특별시 강남구 신사동 668
대모산입구역,37.4911324,127.0728947,지하철역,서울특별시 강남구 금연환경 조성 및 간접흡연 피해방지 조례 제5조,100000,서울특별시 강남구 일원동 700
대모산입구역,37.4911324,127.0728947,지하철역,서울특별시 강남구 금연환경 조성 및 간접흡연 피해방지 조례 제5조,100000,서울특별시 강남구 일원동 700
대모산입구역,37.4911324,127.0728947,지하철역,서울특별시 강남구 금연환경 조성 및 간접흡연 피해방지 조례 제5조,100000,서울특별시 강남구 일원동 700
대모산입구역,37.4911324,127.0728947,지하철역,서울특별시 강남구 금연환경 조성 및 간접흡연 피해방지 조례 제5조,100000,서울특별시 강남구 일원동 700
대모산입구역,37.4911324,127.0728947,지하철역,서울특별시 강남구 금연환경 조성 및 간접흡연 피해방지 조례 제5조,100000,서울특별시 강남구 일원동 700
대모산입구역,37.4911324,127.0728947,지하철역,서울특별시 강남구 금연환경 조성 및 간접흡연 피해방지 조례 제5조,100000,서울특별시 강남구 일원동 700
대청역,37.4936861,127.0794787,지하철역,서울특별시 강남구 금연환경 조성 및 간접흡연 피해방지 조례 제5조,100000,서울특별시 강남구 일원동 700-9
압구정역,37.5235264,127.0283255,지하철역,서울특별시 강남구 금연환경 조성 및 간접흡연 피해방지 조례 제5조,100000,서울특별시 강남구 신사동 668
압구정역,37.5235264,127.0283255,지하철역,서울특별시 강남구 금연환경 조성 및 간접흡연 피해방지 조례 제5조,100000,서울특별시 강남구 신사동 668
압구정역,37.5235264,127.0283255,지하철역,서울특별시 강남구 금연환경 조성 및 간접흡연 피해방지 조례 제5조,100000,서울특별시 강남구 신사동 668
압구정역,37.5235264,127.0283255,지하철역,서울특별시 강남구 금연환경 조성 및 간접흡연 피해방지 조례 제5조,100000,서울특별시 강남구 신사동 668
압구정역,37.5235264,127.0283255,지하철역,서울특별시 강남구 금연환경 조성 및 간접흡연 피해방지 조례 제5조,100000,서울특별시 강남구 신사동 668
압구정로데오역,37.5294032,127.0412456,지하철역,서울특별시 강남구 금연환경 조성 및 간접흡연 피해방지 조례 제5조,100000,서울특별시 강남구 압구정동 495
압구정로데오역,37.5294032,127.0412456,지하철역,서울특별시 강남구 금연환경 조성 및 간접흡연 피해방지 조례 제5조,100000,서울특별시 강남구 압구정동 495
압구정로데오역,37.5294032,127.0412456,지하철역,서울특별시 강남구 금연환경 조성 및 간접흡연 피해방지 조례 제5조,100000,서울특별시 강남구 압구정동 495
압구정로데오역,37.5294032,127.0412456,지하철역,서울특별시 강남구 금연환경 조성 및 간접흡연 피해방지 조례 제5조,100000,서울특별시 강남구 압구정동 495
압구정로데오역,37.5294032,127.0412456,지하철역,서울특별시 강남구 금연환경 조성 및 간접흡연 피해방지 조례 제5조,100000,서울특별시 강남구 압구정동 495
압구정로데오역,37.5294032,127.0412456,지하철역,서울특별시 강남구 금연환경 조성 및 간접흡연 피해방지 조례 제5조,100000,서울특별시 강남구 압구정동 495
압구정로데오역,37.5294032,127.0412456,지하철역,서울특별시 강남구 금연환경 조성 및 간접흡연 피해방지 조례 제5조,100000,서울특별시 강남구 압구정동 495
양재역,37.4847605,127.033371,지하철역,서울특별시 강남구 금연환경 조성 및 간접흡연 피해방지 조례 제5조,100000,서울특별시 서초구 서초동 1366-9
양재역,37.4847605,127.033371,지하철역,서울특별시 강남구 금연환경 조성 및 간접흡연 피해방지 조례 제5조,100000,서울특별시 서초구 서초동 1366-9
대청역,37.4936861,127.0794787,지하철역,서울특별시 강남구 금연환경 조성 및 간접흡연 피해방지 조례 제5조,100000,서울특별시 강남구 일원동 700-9
대청역,37.4936861,127.0794787,지하철역,서울특별시 강남구 금연환경 조성 및 간접흡연 피해방지 조례 제5조,100000,서울특별시 강남구 일원동 700-9
대청역,37.4936861,127.0794787,지하철역,서울특별시 강남구 금연환경 조성 및 간접흡연 피해방지 조례 제5조,100000,서울특별시 강남구 일원동 700-9
대청역,37.4936861,127.0794787,지하철역,서울특별시 강남구 금연환경 조성 및 간접흡연 피해방지 조례 제5조,100000,서울특별시 강남구 일원동 700-9
대청역,37.4936861,127.0794787,지하철역,서울특별시 강남구 금연환경 조성 및 간접흡연 피해방지 조례 제5조,100000,서울특별시 강남구 일원동 700-9
대청역,37.4936861,127.0794787,지하철역,서울특별시 강남구 금연환경 조성 및 간접흡연 피해방지 조례 제5조,100000,서울특별시 강남구 일원동 700-9
대청역,37.4936861,127.0794787,지하철역,서울특별시 강남구 금연환경 조성 및 간접흡연 피해방지 조례 제5조,100000,서울특별시 강남구 일원동 700-9
대치역,37.4945429,127.0634256,지하철역,서울특별시 강남구 금연환경 조성 및 간접흡연 피해방지 조례 제5조,100000,서울특별시 강남구 대치동 317-3
대치역,37.4945429,127.0634256,지하철역,서울특별시 강남구 금연환경 조성 및 간접흡연 피해방지 조례 제5조,100000,서울특별시 강남구 대치동 317-3
대치역,37.4945429,127.0634256,지하철역,서울특별시 강남구 금연환경 조성 및 간접흡연 피해방지 조례 제5조,100000,서울특별시 강남구 대치동 317-3
대치역,37.4945429,127.0634256,지하철역,서울특별시 강남구 금연환경 조성 및 간접흡연 피해방지 조례 제5조,100000,서울특별시 강남구 대치동 317-3
대치역,37.4945429,127.0634256,지하철역,서울특별시 강남구 금연환경 조성 및 간접흡연 피해방지 조례 제5조,100000,서울특별시 강남구 대치동 317-3
대치역,37.4945429,127.0634256,지하철역,서울특별시 강남구 금연환경 조성 및 간접흡연 피해방지 조례 제5조,100000,서울특별시 강남구 대치동 317-3
대치역,37.4945429,127.0634256,지하철역,서울특별시 강남구 금연환경 조성 및 간접흡연 피해방지 조례 제5조,100000,서울특별시 강남구 대치동 317-3
대치역,37.4945429,127.0634256,지하철역,서울특별시 강남구 금연환경 조성 및 간접흡연 피해방지 조례 제5조,100000,서울특별시 강남구 대치동 317-3
언주역,37.5074533,127.0342367,지하철역,서울특별시 강남구 금연환경 조성 및 간접흡연 피해방지 조례 제5조,100000,서울특별시 강남구 논현동 279-165
언주역,37.5074533,127.0342367,지하철역,서울특별시 강남구 금연환경 조성 및 간접흡연 피해방지 조례 제5조,100000,서울특별시 강남구 논현동 279-165
언주역,37.5074533,127.0342367,지하철역,서울특별시 강남구 금연환경 조성 및 간접흡연 피해방지 조례 제5조,100000,서울특별시 강남구 논현동 279-165
언주역,37.5074533,127.0342367,지하철역,서울특별시 강남구 금연환경 조성 및 간접흡연 피해방지 조례 제5조,100000,서울특별시 강남구 논현동 279-165
언주역,37.5074533,127.0342367,지하철역,서울특별시 강남구 금연환경 조성 및 간접흡연 피해방지 조례 제5조,100000,서울특별시 강남구 논현동 279-165
도곡역,37.4908245,127.0553064,지하철역,서울특별시 강남구 금연환경 조성 및 간접흡연 피해방지 조례 제5조,100000,서울특별시 강남구 도곡동 339-2
도곡역,37.4908245,127.0553064,지하철역,서울특별시 강남구 금연환경 조성 및 간접흡연 피해방지 조례 제5조,100000,서울특별시 강남구 도곡동 339-2
도곡역,37.4908245,127.0553064,지하철역,서울특별시 강남구 금연환경 조성 및 간접흡연 피해방지 조례 제5조,100000,서울특별시 강남구 도곡동 339-2
도곡역,37.4908245,127.0553064,지하철역,서울특별시 강남구 금연환경 조성 및 간접흡연 피해방지 조례 제5조,100000,서울특별시 강남구 도곡동 339-2
개포주공APT(803동) 앞,37.4898353,127.0762907,택시승강장,서울특별시 강남구 금연환경 조성 및 간접흡연 피해방지 조례 제5조,100000,서울특별시 강남구 일원동 691
선릉역 위,37.5112764,127.0454217,택시승강장,서울특별시 강남구 금연환경 조성 및 간접흡연 피해방지 조례 제5조,100000,서울특별시 강남구 삼성동 705
목련타운109동 앞,37.4824572,127.0852937,택시승강장,서울특별시 강남구 금연환경 조성 및 간접흡연 피해방지 조례 제5조,100000,서울특별시 강남구 일원본동 735
대곡초등앞(대치역6번출구),37.4942101,127.0638346,택시승강장,서울특별시 강남구 금연환경 조성 및 간접흡연 피해방지 조례 제5조,100000,서울특별시 강남구 대치동 509
엠마케익건너(세븐일레븐앞),37.4935978,127.0622998,택시승강장,서울특별시 강남구 금연환경 조성 및 간접흡연 피해방지 조례 제5조,100000,서울특별시 강남구 대치2동 507
대치역(대한투자신탁) 앞,37.4945186,127.0626332,택시승강장,서울특별시 강남구 금연환경 조성 및 간접흡연 피해방지 조례 제5조,100000,서울특별시 강남구 대치1동 599
코스모타워건너(SK케미칼),37.518025,127.063967,택시승강장,서울특별시 강남구 금연환경 조성 및 간접흡연 피해방지 조례 제5조,100000,서울특별시 강남구 삼성동 98-7
코스모타워 앞,37.5173474,127.044048,택시승강장,서울특별시 강남구 금연환경 조성 및 간접흡연 피해방지 조례 제5조,100000,서울특별시 강남구 삼성동 1008-3
시티은행 앞,37.4983074,127.0302413,택시승강장,서울특별시 강남구 금연환경 조성 및 간접흡연 피해방지 조례 제5조,100000,서울특별시 강남구 역삼동 824-3
농협논현지점 앞,37.5058792,127.0242552,택시승강장,서울특별시 강남구 금연환경 조성 및 간접흡연 피해방지 조례 제5조,100000,서울특별시 강남구 논현1동 199
타워팰리스2차 @ 앞,37.4881387,127.0511666,택시승강장,서울특별시 강남구 금연환경 조성 및 간접흡연 피해방지 조례 제5조,100000,서울특별시 강남구 도곡동 467-6
도곡렉슬@ 입구,37.4950584,127.0505701,택시승강장,서울특별시 강남구 금연환경 조성 및 간접흡연 피해방지 조례 제5조,100000,서울특별시 강남구 도곡동 538
르네상스호텔 앞,37.5032173,127.0416201,택시승강장,서울특별시 강남구 금연환경 조성 및 간접흡연 피해방지 조례 제5조,100000,서울특별시 강남구 역삼동 676
제일정형외과 앞,37.5036707,127.0476607,택시승강장,서울특별시 강남구 금연환경 조성 및 간접흡연 피해방지 조례 제5조,100000,서울특별시 강남구 역삼동 708
나산빌딩 앞,37.4964429,127.0552323,택시승강장,서울특별시 강남구 금연환경 조성 및 간접흡연 피해방지 조례 제5조,100000,서울특별시 강남구 대치동 1024
영동시장입구,37.5101814,127.0222548,택시승강장,서울특별시 강남구 금연환경 조성 및 간접흡연 피해방지 조례 제5조,100000,서울특별시 강남구 논현동 142-2
신사역조흥은행 앞(영동호텔쪽),37.5168147,127.0221321,택시승강장,서울특별시 강남구 금연환경 조성 및 간접흡연 피해방지 조례 제5조,100000,서울특별시 강남구 논현1동 4
신사역 농협 앞,37.5184597,127.0213278,택시승강장,서울특별시 강남구 금연환경 조성 및 간접흡연 피해방지 조례 제5조,100000,서울특별시 강남구 신사동 516
"갤러리아백화점 앞(구,한양쇼핑)",37.533262,127.0281879,택시승강장,서울특별시 강남구 금연환경 조성 및 간접흡연 피해방지 조례 제5조,100000,서울특별시 강남구 압구정동 2
현대APT87동 앞,37.5297371,127.030708,택시승강장,서울특별시 강남구 금연환경 조성 및 간접흡연 피해방지 조례 제5조,100000,서울특별시 강남구 압구정 458
광림교회 건너,37.5315421,127.032935,택시승강장,서울특별시 강남구 금연환경 조성 및 간접흡연 피해방지 조례 제5조,100000,서울특별시 강남구 압구정동 468
임페리얼호텔 앞,37.5119315,127.0418537,택시승강장,서울특별시 강남구 금연환경 조성 및 간접흡연 피해방지 조례 제5조,100000,서울특별시 강남구 논현동 248
상아APT 건너,37.5176452,127.0511449,택시승강장,서울특별시 강남구 금연환경 조성 및 간접흡연 피해방지 조례 제5조,100000,서울특별시 강남구 삼성동 52-17
상아APT 앞,37.5165461,127.0510559,택시승강장,서울특별시 강남구 금연환경 조성 및 간접흡연 피해방지 조례 제5조,100000,서울특별시 강남구 삼성동 21
삼원가든 앞,37.5249265,127.0325905,택시승강장,서울특별시 강남구 금연환경 조성 및 간접흡연 피해방지 조례 제5조,100000,서울특별시 강남구 신사동 623-5
서울세관(통계청) 건너,37.5193432,127.0351842,택시승강장,서울특별시 강남구 금연환경 조성 및 간접흡연 피해방지 조례 제5조,100000,서울특별시 강남구 논현동 105-7
경복APT(B동) 앞,37.5093526,127.0388621,택시승강장,서울특별시 강남구 금연환경 조성 및 간접흡연 피해방지 조례 제5조,100000,서울특별시 강남구 논현동 276
강남구청 건너,37.5196064,127.0491924,택시승강장,서울특별시 강남구 금연환경 조성 및 간접흡연 피해방지 조례 제5조,100000,서울특별시 강남구 청담동 47
"ASAM타워(구,COEX신관) 앞",37.513696,127.0610812,택시승강장,서울특별시 강남구 금연환경 조성 및 간접흡연 피해방지 조례 제5조,100000,서울특별시 강남구 삼성동 160
한국전력 앞,37.512287,127.0630422,택시승강장,서울특별시 강남구 금연환경 조성 및 간접흡연 피해방지 조례 제5조,100000,서울특별시 강남구 삼성동 167
그랑프리백화점 앞,37.4908748,127.0573085,택시승강장,서울특별시 강남구 금연환경 조성 및 간접흡연 피해방지 조례 제5조,100000,서울특별시 강남구 대치동 500
개포주공APT(706동) 앞,37.4894348,127.0724069,택시승강장,서울특별시 강남구 금연환경 조성 및 간접흡연 피해방지 조례 제5조,100000,서울특별시 강남구 개포동 185 주공7단지앞
압구정중학교,37.5302105,127.032959,학교절대보호구역,서울특별시 강남구 금연환경 조성 및 간접흡연 피해방지 조례 제5조,100000,서울특별시 강남구 압구정동 471
언북중학교,37.51928,127.033073,학교절대보호구역,서울특별시 강남구 금연환경 조성 및 간접흡연 피해방지 조례 제5조,100000,서울특별시 강남구 논현동 69
언주중학교,37.5143038,127.0464035,학교절대보호구역,서울특별시 강남구 금연환경 조성 및 간접흡연 피해방지 조례 제5조,100000,서울특별시 강남구 삼성동 28
역삼중학교,37.4956709,127.0490787,학교절대보호구역,서울특별시 강남구 금연환경 조성 및 간접흡연 피해방지 조례 제5조,100000,서울특별시 강남구 역삼동 767-20
은성중학교,37.4879414,127.0359252,학교절대보호구역,서울특별시 강남구 금연환경 조성 및 간접흡연 피해방지 조례 제5조,100000,서울특별시 강남구 도곡동 938-10
중동중학교,37.488319,127.0786207,학교절대보호구역,서울특별시 강남구 금연환경 조성 및 간접흡연 피해방지 조례 제5조,100000,서울특별시 강남구 일원2동 692
진선여자중학교,37.501754,127.0476387,학교절대보호구역,서울특별시 강남구 금연환경 조성 및 간접흡연 피해방지 조례 제5조,100000,서울특별시 강남구 선릉로85길 27
청담중학교,37.5285802,127.0454332,학교절대보호구역,서울특별시 강남구 금연환경 조성 및 간접흡연 피해방지 조례 제5조,100000,서울특별시 강남구 청담동 143
휘문중학교,37.504951,127.0620662,학교절대보호구역,서울특별시 강남구 금연환경 조성 및 간접흡연 피해방지 조례 제5조,100000,서울특별시 강남구 대치동 952-1
국악중학교,37.475978,127.0516132,학교절대보호구역,서울특별시 강남구 금연환경 조성 및 간접흡연 피해방지 조례 제5조,100000,서울특별시 강남구 개포동 1272
개포고등학교,37.4846776,127.0596014,학교절대보호구역,서울특별시 강남구 금연환경 조성 및 간접흡연 피해방지 조례 제5조,100000,서울특별시 강남구 개포동 173번지
경기고등학교,37.5163693,127.0543997,학교절대보호구역,서울특별시 강남구 금연환경 조성 및 간접흡연 피해방지 조례 제5조,100000,서울특별시 강남구 삼성동 74번지
경기여자고등학교,37.486824,127.0660933,학교절대보호구역,서울특별시 강남구 금연환경 조성 및 간접흡연 피해방지 조례 제5조,100000,서울특별시 강남구 개포 2동 152번지
단국대학교사범대학부속고등학교,37.4953357,127.0564936,학교절대보호구역,서울특별시 강남구 금연환경 조성 및 간접흡연 피해방지 조례 제5조,100000,서울특별시 강남구 대치동 1013
서울세종고등학교,37.4903266,127.1026224,학교절대보호구역,서울특별시 강남구 금연환경 조성 및 간접흡연 피해방지 조례 제5조,100000,서울특별시 강남구 수서동 711
숙명여자고등학교,37.4907295,127.0533366,학교절대보호구역,서울특별시 강남구 금연환경 조성 및 간접흡연 피해방지 조례 제5조,100000,서울특별시 강남구 도곡 2동 91번지
압구정고등학교,37.5311729,127.0328538,학교절대보호구역,서울특별시 강남구 금연환경 조성 및 간접흡연 피해방지 조례 제5조,100000,서울특별시 강남구 압구정동 470
영동고등학교,37.5205869,127.0426288,학교절대보호구역,서울특별시 강남구 금연환경 조성 및 간접흡연 피해방지 조례 제5조,100000,서울특별시 강남구 청담동 23-4번지
은광여자고등학교,37.4879414,127.0359252,학교절대보호구역,서울특별시 강남구 금연환경 조성 및 간접흡연 피해방지 조례 제5조,100000,서울특별시 강남구 도곡동 938-10
중동고등학교,37.4935585,127.0804483,학교절대보호구역,서울특별시 강남구 금연환경 조성 및 간접흡연 피해방지 조례 제5조,100000,서울특별시 강남구 일원1동 618
중산고등학교,37.485653,127.0808471,학교절대보호구역,서울특별시 강남구 금연환경 조성 및 간접흡연 피해방지 조례 제5조,100000,서울특별시 강남구 일원동 714
중앙대학교사범대학부속고등학교,37.4924705,127.0529132,학교절대보호구역,서울특별시 강남구 금연환경 조성 및 간접흡연 피해방지 조례 제5조,100000,서울특별시 강남구 도곡 2동 108번지
진선여자고등학교,37.501754,127.0476387,학교절대보호구역,서울특별시 강남구 금연환경 조성 및 간접흡연 피해방지 조례 제5조,100000,서울특별시 강남구 역삼 2동 713번지
청담고등학교,37.5278836,127.0435289,학교절대보호구역,서울특별시 강남구 금연환경 조성 및 간접흡연 피해방지 조례 제5조,100000,서울특별시 강남구 압구정동 526
현대고등학교,37.5250492,127.0226548,학교절대보호구역,서울특별시 강남구 금연환경 조성 및 간접흡연 피해방지 조례 제5조,100000,서울특별시 강남구 압구정동 425번지
휘문고등학교,37.504951,127.0620662,학교절대보호구역,서울특별시 강남구 금연환경 조성 및 간접흡연 피해방지 조례 제5조,100000,서울특별시 강남구 대치 2동 952-1번지
단국공업고등학교,37.4953357,127.0564936,학교절대보호구역,서울특별시 강남구 금연환경 조성 및 간접흡연 피해방지 조례 제5조,100000,서울특별시 강남구 대치 1동 1013
대진디자인고등학교,37.4904401,127.0960046,학교절대보호구역,서울특별시 강남구 금연환경 조성 및 간접흡연 피해방지 조례 제5조,100000,서울특별시 강남구 수서동 733
서울로봇고등학교,37.4807426,127.084375,학교절대보호구역,서울특별시 강남구 금연환경 조성 및 간접흡연 피해방지 조례 제5조,100000,서울특별시 강남구 일원동 738
수도전기공업고등학교,37.4850307,127.0639073,학교절대보호구역,서울특별시 강남구 금연환경 조성 및 간접흡연 피해방지 조례 제5조,100000,서울특별시 강남구 개포 2동 155번지
국악고등학교,37.475978,127.0516132,학교절대보호구역,서울특별시 강남구 금연환경 조성 및 간접흡연 피해방지 조례 제5조,100000,서울특별시 강남구 개포동 1272번지
밀알학교,37.4859112,127.0821906,학교절대보호구역,서울특별시 강남구 금연환경 조성 및 간접흡연 피해방지 조례 제5조,100000,서울특별시 강남구 일원동 713번지
서울정애학교,37.5143628,127.054425,학교절대보호구역,서울특별시 강남구 금연환경 조성 및 간접흡연 피해방지 조례 제5조,100000,서울특별시 강남구 삼성동 74-13
서울개원초등학교,37.4812767,127.058657,학교절대보호구역,서울특별시 강남구 금연환경 조성 및 간접흡연 피해방지 조례 제5조,100000,서울특별시 강남구 선릉로 29
서울개일초등학교,37.4861543,127.057776,학교절대보호구역,서울특별시 강남구 금연환경 조성 및 간접흡연 피해방지 조례 제5조,100000,서울특별시 강남구 개포동 174번지
서울개포초등학교,37.4866274,127.0709874,학교절대보호구역,서울특별시 강남구 금연환경 조성 및 간접흡연 피해방지 조례 제5조,100000,서울특별시 강남구 개포2동 188번지
서울구룡초등학교,37.4807232,127.051863,학교절대보호구역,서울특별시 강남구 금연환경 조성 및 간접흡연 피해방지 조례 제5조,100000,서울특별시 강남구 개포4동 655번지
서울율현초등학교,37.4746168,127.1083195,학교절대보호구역,서울특별시 강남구 금연환경 조성 및 간접흡연 피해방지 조례 제5조,100000,서울특별시 강남구 밤고개로21길 15(자곡동)
서울자곡초등학교,37.4722368,127.0997165,학교절대보호구역,서울특별시 강남구 금연환경 조성 및 간접흡연 피해방지 조례 제5조,100000,서울특별시 강남구 자곡로 150 (자곡동)
서울논현초등학교,37.5081699,127.0260317,학교절대보호구역,서울특별시 강남구 금연환경 조성 및 간접흡연 피해방지 조례 제5조,100000,서울특별시 강남구 논현동 168번지
서울대곡초등학교,37.4943322,127.0646926,학교절대보호구역,서울특별시 강남구 금연환경 조성 및 간접흡연 피해방지 조례 제5조,100000,서울특별시 강남구 대치 2동 510번지
서울대도초등학교,37.4926285,127.0536293,학교절대보호구역,서울특별시 강남구 금연환경 조성 및 간접흡연 피해방지 조례 제5조,100000,서울특별시 강남구 도곡 2동 109번지
서울대모초등학교,37.4814341,127.0865193,학교절대보호구역,서울특별시 강남구 금연환경 조성 및 간접흡연 피해방지 조례 제5조,100000,서울특별시 강남구 일원본동 736번지
서울대왕초등학교,37.4641998,127.1056319,학교절대보호구역,서울특별시 강남구 금연환경 조성 및 간접흡연 피해방지 조례 제5조,100000,서울특별시 강남구 세곡동 122-2번지
서울대진초등학교,37.4970272,127.0779765,학교절대보호구역,서울특별시 강남구 금연환경 조성 및 간접흡연 피해방지 조례 제5조,100000,서울특별시 강남구 개포동 13번지
서울대청초등학교,37.4931172,127.0875746,학교절대보호구역,서울특별시 강남구 금연환경 조성 및 간접흡연 피해방지 조례 제5조,100000,서울특별시 강남구 일원1동 712번지
서울대치초등학교,37.4909689,127.0624593,학교절대보호구역,서울특별시 강남구 금연환경 조성 및 간접흡연 피해방지 조례 제5조,100000,서울특별시 강남구 대치동 505번지
서울대현초등학교,37.5038985,127.0636435,학교절대보호구역,서울특별시 강남구 금연환경 조성 및 간접흡연 피해방지 조례 제5조,100000,서울특별시 강남구 대치동 969
서울도곡초등학교,37.4993211,127.054928,학교절대보호구역,서울특별시 강남구 금연환경 조성 및 간접흡연 피해방지 조례 제5조,100000,서울특별시 강남구 대치 4동 924-10
서울도성초등학교,37.5013049,127.0489326,학교절대보호구역,서울특별시 강남구 금연환경 조성 및 간접흡연 피해방지 조례 제5조,100000,서울특별시 강남구 역삼 2동 714번지
서울봉은초등학교,37.5201521,127.0609811,학교절대보호구역,서울특별시 강남구 금연환경 조성 및 간접흡연 피해방지 조례 제5조,100000,서울특별시 강남구 삼성동 79-2번지
서울삼릉초등학교,37.5131023,127.0469142,학교절대보호구역,서울특별시 강남구 금연환경 조성 및 간접흡연 피해방지 조례 제5조,100000,서울특별시 강남구 삼성 2동 42번지
서울세명초등학교,37.468414,127.0909827,학교절대보호구역,서울특별시 강남구 금연환경 조성 및 간접흡연 피해방지 조례 제5조,100000,서울특별시 강남구 세곡동 464-9번지
서울수서초등학교,37.4909843,127.1015493,학교절대보호구역,서울특별시 강남구 금연환경 조성 및 간접흡연 피해방지 조례 제5조,100000,서울특별시 강남구 수서동 709번지
서울신구초등학교,37.5233603,127.0240264,학교절대보호구역,서울특별시 강남구 금연환경 조성 및 간접흡연 피해방지 조례 제5조,100000,서울특별시 강남구 신사동 550-11번지
서울압구정초등학교,37.5316708,127.031165,학교절대보호구역,서울특별시 강남구 금연환경 조성 및 간접흡연 피해방지 조례 제5조,100000,서울특별시 강남구 압구정동 461
서울양전초등학교,37.4903657,127.0694778,학교절대보호구역,서울특별시 강남구 금연환경 조성 및 간접흡연 피해방지 조례 제5조,100000,서울특별시 강남구 개포 2동 183번지
서울언북초등학교,37.5199257,127.0451,학교절대보호구역,서울특별시 강남구 금연환경 조성 및 간접흡연 피해방지 조례 제5조,100000,서울특별시 강남구 청담동 27번지
서울언주초등학교,37.4862841,127.0367809,학교절대보호구역,서울특별시 강남구 금연환경 조성 및 간접흡연 피해방지 조례 제5조,100000,서울특별시 강남구 도곡 1동 922
서울역삼초등학교,37.492918,127.0328543,학교절대보호구역,서울특별시 강남구 금연환경 조성 및 간접흡연 피해방지 조례 제5조,100000,서울특별시 강남구 역삼동833-7
서울영희초등학교,37.4922499,127.0808759,학교절대보호구역,서울특별시 강남구 금연환경 조성 및 간접흡연 피해방지 조례 제5조,100000,서울특별시 강남구 일원 1동 617번지
서울왕북초등학교,37.4864123,127.0860392,학교절대보호구역,서울특별시 강남구 금연환경 조성 및 간접흡연 피해방지 조례 제5조,100000,서울특별시 강남구 수서동 745번지
서울일원초등학교,37.4898353,127.0762907,학교절대보호구역,서울특별시 강남구 금연환경 조성 및 간접흡연 피해방지 조례 제5조,100000,서울특별시 강남구 일원동 691번지
서울청담초등학교,37.5279725,127.0452701,학교절대보호구역,서울특별시 강남구 금연환경 조성 및 간접흡연 피해방지 조례 제5조,100000,서울특별시 강남구 청담동 142번지
서울포이초등학교,37.4756728,127.0520896,학교절대보호구역,서울특별시 강남구 금연환경 조성 및 간접흡연 피해방지 조례 제5조,100000,서울특별시 강남구 개포동 1273
서울학동초등학교,37.5125348,127.0397082,학교절대보호구역,서울특별시 강남구 금연환경 조성 및 간접흡연 피해방지 조례 제5조,100000,서울특별시 강남구 논현 2동 264-7번지
개원중학교,37.4918658,127.071402,학교절대보호구역,서울특별시 강남구 금연환경 조성 및 간접흡연 피해방지 조례 제5조,100000,서울특별시 강남구 개포2동 184
개포중학교,37.4806642,127.0617435,학교절대보호구역,서울특별시 강남구 금연환경 조성 및 간접흡연 피해방지 조례 제5조,100000,서울특별시 강남구 개포동 660-37
구룡중학교,37.4862777,127.0560795,학교절대보호구역,서울특별시 강남구 금연환경 조성 및 간접흡연 피해방지 조례 제5조,100000,서울특별시 강남구 개포1동 650
단국대학교사범대학부속중학교,37.4953357,127.0564936,학교절대보호구역,서울특별시 강남구 금연환경 조성 및 간접흡연 피해방지 조례 제5조,100000,서울특별시 강남구 대치1동 1013
대명중학교,37.5063402,127.0608974,학교절대보호구역,서울특별시 강남구 금연환경 조성 및 간접흡연 피해방지 조례 제5조,100000,서울특별시 강남구 대치2동 952
대왕중학교,37.483438,127.0873271,학교절대보호구역,서울특별시 강남구 금연환경 조성 및 간접흡연 피해방지 조례 제5조,100000,서울특별시 강남구 수서동 750
대청중학교,37.4905203,127.0583895,학교절대보호구역,서울특별시 강남구 금연환경 조성 및 간접흡연 피해방지 조례 제5조,100000,서울특별시 강남구 대치1동 502
대치중학교,37.4845654,127.0472825,학교절대보호구역,서울특별시 강남구 금연환경 조성 및 간접흡연 피해방지 조례 제5조,100000,서울특별시 강남구 도곡2동 460
도곡중학교,37.4923472,127.0450882,학교절대보호구역,서울특별시 강남구 금연환경 조성 및 간접흡연 피해방지 조례 제5조,100000,서울특별시 강남구 도곡1동 541-2
봉은중학교,37.5189411,127.0621196,학교절대보호구역,서울특별시 강남구 금연환경 조성 및 간접흡연 피해방지 조례 제5조,100000,서울특별시 강남구 삼성동 82-7
수서중학교,37.4910655,127.1023885,학교절대보호구역,서울특별시 강남구 금연환경 조성 및 간접흡연 피해방지 조례 제5조,100000,서울특별시 강남구 수서동 710
숙명여자중학교,37.4907295,127.0533366,학교절대보호구역,서울특별시 강남구 금연환경 조성 및 간접흡연 피해방지 조례 제5조,100000,서울특별시 강남구 도곡동 91
세곡중학교,37.4715611,127.0922277,학교절대보호구역,서울특별시 강남구 금연환경 조성 및 간접흡연 피해방지 조례 제5조,100000,서울특별시 강남구 자곡동565-4
신구중학교,37.5273302,127.0322212,학교절대보호구역,서울특별시 강남구 금연환경 조성 및 간접흡연 피해방지 조례 제5조,100000,서울특별시 강남구 신사동 621
신사중학교,37.5247079,127.02115,학교절대보호구역,서울특별시 강남구 금연환경 조성 및 간접흡연 피해방지 조례 제5조,100000,서울특별시 강남구 압구정동 410
